[{"FEATURE_ID":975772,"PLACE_NAME":"New York - NY","STATE_ALPHA":"NY","FEATURE_NAME":"New York","PRIM_LAT_DEC":40.7142691,"PRIM_LONG_DEC":-74.0059729},{"FEATURE_ID":973345,"PLACE_NAME":"Buffalo - NY","STATE_ALPHA":"NY","FEATURE_NAME":"Buffalo","PRIM_LAT_DEC":42.8864468,"PRIM_LONG_DEC":-78.8783689},{"FEATURE_ID":962684,"PLACE_NAME":"Rochester - NY","STATE_ALPHA":"NY","FEATURE_NAME":"Rochester","PRIM_LAT_DEC":43.1547845,"PRIM_LONG_DEC":-77.6155568},{"FEATURE_ID":971828,"PLACE_NAME":"Yonkers - NY","STATE_ALPHA":"NY","FEATURE_NAME":"Yonkers","PRIM_LAT_DEC":40.9312099,"PRIM_LONG_DEC":-73.8987469},{"FEATURE_ID":966966,"PLACE_NAME":"Syracuse - NY","STATE_ALPHA":"NY","FEATURE_NAME":"Syracuse","PRIM_LAT_DEC":43.0481221,"PRIM_LONG_DEC":-76.1474244},{"FEATURE_ID":977310,"PLACE_NAME":"Albany - NY","STATE_ALPHA":"NY","FEATURE_NAME":"Albany","PRIM_LAT_DEC":42.6525793,"PRIM_LONG_DEC":-73.7562317},{"FEATURE_ID":958451,"PLACE_NAME":"New Rochelle - NY","STATE_ALPHA":"NY","FEATURE_NAME":"New Rochelle","PRIM_LAT_DEC":40.9114882,"PRIM_LONG_DEC":-73.7823549},{"FEATURE_ID":957917,"PLACE_NAME":"Mount Vernon - NY","STATE_ALPHA":"NY","FEATURE_NAME":"Mount Vernon","PRIM_LAT_DEC":40.9125992,"PRIM_LONG_DEC":-73.8370786},{"FEATURE_ID":957918,"PLACE_NAME":"Mount Vernon - NY","STATE_ALPHA":"NY","FEATURE_NAME":"Mount Vernon","PRIM_LAT_DEC":42.7539477,"PRIM_LONG_DEC":-78.8905901},{"FEATURE_ID":972822,"PLACE_NAME":"Mount Vernon - NY","STATE_ALPHA":"NY","FEATURE_NAME":"Mount Vernon","PRIM_LAT_DEC":41.6484269,"PRIM_LONG_DEC":-74.4965475},{"FEATURE_ID":964570,"PLACE_NAME":"Schenectady - NY","STATE_ALPHA":"NY","FEATURE_NAME":"Schenectady","PRIM_LAT_DEC":42.8142432,"PRIM_LONG_DEC":-73.9395687},{"FEATURE_ID":968324,"PLACE_NAME":"Utica - NY","STATE_ALPHA":"NY","FEATURE_NAME":"Utica","PRIM_LAT_DEC":43.1009031,"PRIM_LONG_DEC":-75.2326641},{"FEATURE_ID":977432,"PLACE_NAME":"White Plains - NY","STATE_ALPHA":"NY","FEATURE_NAME":"White Plains","PRIM_LAT_DEC":41.0339862,"PRIM_LONG_DEC":-73.7629097},{"FEATURE_ID":967902,"PLACE_NAME":"Troy - NY","STATE_ALPHA":"NY","FEATURE_NAME":"Troy","PRIM_LAT_DEC":42.7284117,"PRIM_LONG_DEC":-73.6917851},{"FEATURE_ID":970406,"PLACE_NAME":"Niagara Falls - NY","STATE_ALPHA":"NY","FEATURE_NAME":"Niagara Falls","PRIM_LAT_DEC":43.0944999,"PRIM_LONG_DEC":-79.0567111},{"FEATURE_ID":1662328,"PLACE_NAME":"Los Angeles - CA","STATE_ALPHA":"CA","FEATURE_NAME":"Los Angeles","PRIM_LAT_DEC":34.0522342,"PRIM_LONG_DEC":-118.2436849},{"FEATURE_ID":1661377,"PLACE_NAME":"San Diego - CA","STATE_ALPHA":"CA","FEATURE_NAME":"San Diego","PRIM_LAT_DEC":32.7153292,"PRIM_LONG_DEC":-117.1572551},{"FEATURE_ID":1654952,"PLACE_NAME":"San Jose - CA","STATE_ALPHA":"CA","FEATURE_NAME":"San Jose","PRIM_LAT_DEC":37.3393857,"PRIM_LONG_DEC":-121.8949555},{"FEATURE_ID":277593,"PLACE_NAME":"San Francisco - CA","STATE_ALPHA":"CA","FEATURE_NAME":"San Francisco","PRIM_LAT_DEC":37.775,"PRIM_LONG_DEC":-122.4194444},{"FEATURE_ID":277606,"PLACE_NAME":"Fresno - CA","STATE_ALPHA":"CA","FEATURE_NAME":"Fresno","PRIM_LAT_DEC":36.7477272,"PRIM_LONG_DEC":-119.7723661},{"FEATURE_ID":1659564,"PLACE_NAME":"Sacramento - CA","STATE_ALPHA":"CA","FEATURE_NAME":"Sacramento","PRIM_LAT_DEC":38.5815719,"PRIM_LONG_DEC":-121.4943996},{"FEATURE_ID":1652747,"PLACE_NAME":"Long Beach - CA","STATE_ALPHA":"CA","FEATURE_NAME":"Long Beach","PRIM_LAT_DEC":33.7669623,"PRIM_LONG_DEC":-118.1892348},{"FEATURE_ID":277566,"PLACE_NAME":"Oakland - CA","STATE_ALPHA":"CA","FEATURE_NAME":"Oakland","PRIM_LAT_DEC":37.8043722,"PRIM_LONG_DEC":-122.2708026},{"FEATURE_ID":1652668,"PLACE_NAME":"Bakersfield - CA","STATE_ALPHA":"CA","FEATURE_NAME":"Bakersfield","PRIM_LAT_DEC":35.3732921,"PRIM_LONG_DEC":-119.0187125},{"FEATURE_ID":1652663,"PLACE_NAME":"Anaheim - CA","STATE_ALPHA":"CA","FEATURE_NAME":"Anaheim","PRIM_LAT_DEC":33.8352932,"PRIM_LONG_DEC":-117.9145036},{"FEATURE_ID":1652790,"PLACE_NAME":"Santa Ana - CA","STATE_ALPHA":"CA","FEATURE_NAME":"Santa Ana","PRIM_LAT_DEC":33.7455731,"PRIM_LONG_DEC":-117.8678338},{"FEATURE_ID":253387,"PLACE_NAME":"Riverside - CA","STATE_ALPHA":"CA","FEATURE_NAME":"Riverside","PRIM_LAT_DEC":38.5190734,"PRIM_LONG_DEC":-121.5205112},{"FEATURE_ID":1661315,"PLACE_NAME":"Riverside - CA","STATE_ALPHA":"CA","FEATURE_NAME":"Riverside","PRIM_LAT_DEC":33.9533333,"PRIM_LONG_DEC":-117.3961111},{"FEATURE_ID":1662152,"PLACE_NAME":"Riverside - CA","STATE_ALPHA":"CA","FEATURE_NAME":"Riverside","PRIM_LAT_DEC":37.6379863,"PRIM_LONG_DEC":-120.9482659},{"FEATURE_ID":1682579,"PLACE_NAME":"Riverside - CA","STATE_ALPHA":"CA","FEATURE_NAME":"Riverside","PRIM_LAT_DEC":40.863741,"PRIM_LONG_DEC":-123.9706144},{"FEATURE_ID":1659872,"PLACE_NAME":"Stockton - CA","STATE_ALPHA":"CA","FEATURE_NAME":"Stockton","PRIM_LAT_DEC":37.9577016,"PRIM_LONG_DEC":-121.2907796},{"FEATURE_ID":1870300,"PLACE_NAME":"Stockton - CA","STATE_ALPHA":"CA","FEATURE_NAME":"Stockton","PRIM_LAT_DEC":32.713385,"PRIM_LONG_DEC":-117.123087},{"FEATURE_ID":1660804,"PLACE_NAME":"Irvine - CA","STATE_ALPHA":"CA","FEATURE_NAME":"Irvine","PRIM_LAT_DEC":33.6694649,"PRIM_LONG_DEC":-117.8231107},{"FEATURE_ID":1660481,"PLACE_NAME":"Chula Vista - CA","STATE_ALPHA":"CA","FEATURE_NAME":"Chula Vista","PRIM_LAT_DEC":32.64,"PRIM_LONG_DEC":-117.0841667},{"FEATURE_ID":252893,"PLACE_NAME":"Fremont - CA","STATE_ALPHA":"CA","FEATURE_NAME":"Fremont","PRIM_LAT_DEC":35.1916356,"PRIM_LONG_DEC":-117.5767246},{"FEATURE_ID":277521,"PLACE_NAME":"Fremont - CA","STATE_ALPHA":"CA","FEATURE_NAME":"Fremont","PRIM_LAT_DEC":37.5482697,"PRIM_LONG_DEC":-121.9885719},{"FEATURE_ID":1658579,"PLACE_NAME":"Fremont - CA","STATE_ALPHA":"CA","FEATURE_NAME":"Fremont","PRIM_LAT_DEC":38.6765706,"PRIM_LONG_DEC":-121.6349597},{"FEATURE_ID":1661375,"PLACE_NAME":"San Bernardino - CA","STATE_ALPHA":"CA","FEATURE_NAME":"San Bernardino","PRIM_LAT_DEC":34.1083449,"PRIM_LONG_DEC":-117.2897652},{"FEATURE_ID":277609,"PLACE_NAME":"Modesto - CA","STATE_ALPHA":"CA","FEATURE_NAME":"Modesto","PRIM_LAT_DEC":37.6390972,"PRIM_LONG_DEC":-120.9968782},{"FEATURE_ID":1652711,"PLACE_NAME":"Fontana - CA","STATE_ALPHA":"CA","FEATURE_NAME":"Fontana","PRIM_LAT_DEC":34.0922335,"PRIM_LONG_DEC":-117.435048},{"FEATURE_ID":1668251,"PLACE_NAME":"Moreno Valley - CA","STATE_ALPHA":"CA","FEATURE_NAME":"Moreno Valley","PRIM_LAT_DEC":33.937517,"PRIM_LONG_DEC":-117.2305944},{"FEATURE_ID":1662338,"PLACE_NAME":"Santa Clarita - CA","STATE_ALPHA":"CA","FEATURE_NAME":"Santa Clarita","PRIM_LAT_DEC":34.3916641,"PRIM_LONG_DEC":-118.542586},{"FEATURE_ID":1652766,"PLACE_NAME":"Oxnard - CA","STATE_ALPHA":"CA","FEATURE_NAME":"Oxnard","PRIM_LAT_DEC":34.1975048,"PRIM_LONG_DEC":-119.1770516},{"FEATURE_ID":1658620,"PLACE_NAME":"Glendale - CA","STATE_ALPHA":"CA","FEATURE_NAME":"Glendale","PRIM_LAT_DEC":40.8998507,"PRIM_LONG_DEC":-124.0170056},{"FEATURE_ID":1660679,"PLACE_NAME":"Glendale - CA","STATE_ALPHA":"CA","FEATURE_NAME":"Glendale","PRIM_LAT_DEC":34.1425078,"PRIM_LONG_DEC":-118.255075},{"FEATURE_ID":1652724,"PLACE_NAME":"Huntington Beach - CA","STATE_ALPHA":"CA","FEATURE_NAME":"Huntington Beach","PRIM_LAT_DEC":33.660297,"PRIM_LONG_DEC":-117.9992265},{"FEATURE_ID":1652764,"PLACE_NAME":"Ontario - CA","STATE_ALPHA":"CA","FEATURE_NAME":"Ontario","PRIM_LAT_DEC":34.0633443,"PRIM_LONG_DEC":-117.6508876},{"FEATURE_ID":1667908,"PLACE_NAME":"Rancho Cucamonga - CA","STATE_ALPHA":"CA","FEATURE_NAME":"Rancho Cucamonga","PRIM_LAT_DEC":34.1063989,"PRIM_LONG_DEC":-117.5931084},{"FEATURE_ID":1659601,"PLACE_NAME":"Santa Rosa - CA","STATE_ALPHA":"CA","FEATURE_NAME":"Santa Rosa","PRIM_LAT_DEC":38.4404675,"PRIM_LONG_DEC":-122.7144314},{"FEATURE_ID":1652761,"PLACE_NAME":"Oceanside - CA","STATE_ALPHA":"CA","FEATURE_NAME":"Oceanside","PRIM_LAT_DEC":33.1958696,"PRIM_LONG_DEC":-117.3794834},{"FEATURE_ID":277506,"PLACE_NAME":"Elk Grove - CA","STATE_ALPHA":"CA","FEATURE_NAME":"Elk Grove","PRIM_LAT_DEC":38.4087993,"PRIM_LONG_DEC":-121.3716178},{"FEATURE_ID":1660662,"PLACE_NAME":"Garden Grove - CA","STATE_ALPHA":"CA","FEATURE_NAME":"Garden Grove","PRIM_LAT_DEC":33.7739053,"PRIM_LONG_DEC":-117.9414477},{"FEATURE_ID":1652691,"PLACE_NAME":"Corona - CA","STATE_ALPHA":"CA","FEATURE_NAME":"Corona","PRIM_LAT_DEC":33.8752935,"PRIM_LONG_DEC":-117.5664384},{"FEATURE_ID":277607,"PLACE_NAME":"Hayward - CA","STATE_ALPHA":"CA","FEATURE_NAME":"Hayward","PRIM_LAT_DEC":37.6688205,"PRIM_LONG_DEC":-122.0807964},{"FEATURE_ID":1658729,"PLACE_NAME":"Hayward - CA","STATE_ALPHA":"CA","FEATURE_NAME":"Hayward","PRIM_LAT_DEC":37.6427106,"PRIM_LONG_DEC":-120.3713035},{"FEATURE_ID":1652741,"PLACE_NAME":"Lancaster - CA","STATE_ALPHA":"CA","FEATURE_NAME":"Lancaster","PRIM_LAT_DEC":34.6980406,"PRIM_LONG_DEC":-118.1367393},{"FEATURE_ID":277589,"PLACE_NAME":"Salinas - CA","STATE_ALPHA":"CA","FEATURE_NAME":"Salinas","PRIM_LAT_DEC":36.6777372,"PRIM_LONG_DEC":-121.6555013},{"FEATURE_ID":1652769,"PLACE_NAME":"Palmdale - CA","STATE_ALPHA":"CA","FEATURE_NAME":"Palmdale","PRIM_LAT_DEC":34.5794343,"PRIM_LONG_DEC":-118.1164613},{"FEATURE_ID":1656344,"PLACE_NAME":"Sunnyvale - CA","STATE_ALPHA":"CA","FEATURE_NAME":"Sunnyvale","PRIM_LAT_DEC":37.3688301,"PRIM_LONG_DEC":-122.0363496},{"FEATURE_ID":1661247,"PLACE_NAME":"Pomona - CA","STATE_ALPHA":"CA","FEATURE_NAME":"Pomona","PRIM_LAT_DEC":34.0552886,"PRIM_LONG_DEC":-117.7522793},{"FEATURE_ID":1652706,"PLACE_NAME":"Escondido - CA","STATE_ALPHA":"CA","FEATURE_NAME":"Escondido","PRIM_LAT_DEC":33.1192068,"PRIM_LONG_DEC":-117.086421},{"FEATURE_ID":1652802,"PLACE_NAME":"Torrance - CA","STATE_ALPHA":"CA","FEATURE_NAME":"Torrance","PRIM_LAT_DEC":33.8358492,"PRIM_LONG_DEC":-118.3406288},{"FEATURE_ID":1659544,"PLACE_NAME":"Roseville - CA","STATE_ALPHA":"CA","FEATURE_NAME":"Roseville","PRIM_LAT_DEC":38.7521235,"PRIM_LONG_DEC":-121.2880059},{"FEATURE_ID":1661333,"PLACE_NAME":"Roseville - CA","STATE_ALPHA":"CA","FEATURE_NAME":"Roseville","PRIM_LAT_DEC":32.7281061,"PRIM_LONG_DEC":-117.2322583},{"FEATURE_ID":1664804,"PLACE_NAME":"Pasadena - CA","STATE_ALPHA":"CA","FEATURE_NAME":"Pasadena","PRIM_LAT_DEC":34.1477849,"PRIM_LONG_DEC":-118.1445155},{"FEATURE_ID":1652765,"PLACE_NAME":"Orange - CA","STATE_ALPHA":"CA","FEATURE_NAME":"Orange","PRIM_LAT_DEC":33.7877945,"PRIM_LONG_DEC":-117.8531119},{"FEATURE_ID":1660658,"PLACE_NAME":"Fullerton - CA","STATE_ALPHA":"CA","FEATURE_NAME":"Fullerton","PRIM_LAT_DEC":33.8702924,"PRIM_LONG_DEC":-117.925338},{"FEATURE_ID":1652807,"PLACE_NAME":"Visalia - CA","STATE_ALPHA":"CA","FEATURE_NAME":"Visalia","PRIM_LAT_DEC":36.3302284,"PRIM_LONG_DEC":-119.2920585},{"FEATURE_ID":1654953,"PLACE_NAME":"Santa Clara - CA","STATE_ALPHA":"CA","FEATURE_NAME":"Santa Clara","PRIM_LAT_DEC":37.354108,"PRIM_LONG_DEC":-121.9552356},{"FEATURE_ID":1658308,"PLACE_NAME":"Concord - CA","STATE_ALPHA":"CA","FEATURE_NAME":"Concord","PRIM_LAT_DEC":37.9779777,"PRIM_LONG_DEC":-122.0310733},{"FEATURE_ID":1661567,"PLACE_NAME":"Thousand Oaks - CA","STATE_ALPHA":"CA","FEATURE_NAME":"Thousand Oaks","PRIM_LAT_DEC":34.1705556,"PRIM_LONG_DEC":-118.8375},{"FEATURE_ID":1676048,"PLACE_NAME":"Thousand Oaks - CA","STATE_ALPHA":"CA","FEATURE_NAME":"Thousand Oaks","PRIM_LAT_DEC":37.8954809,"PRIM_LONG_DEC":-122.2794137},{"FEATURE_ID":1661450,"PLACE_NAME":"Simi Valley - CA","STATE_ALPHA":"CA","FEATURE_NAME":"Simi Valley","PRIM_LAT_DEC":34.2694474,"PRIM_LONG_DEC":-118.781482},{"FEATURE_ID":1652806,"PLACE_NAME":"Victorville - CA","STATE_ALPHA":"CA","FEATURE_NAME":"Victorville","PRIM_LAT_DEC":34.5361067,"PRIM_LONG_DEC":-117.2911565},{"FEATURE_ID":1661612,"PLACE_NAME":"Vallejo - CA","STATE_ALPHA":"CA","FEATURE_NAME":"Vallejo","PRIM_LAT_DEC":38.1040864,"PRIM_LONG_DEC":-122.2566367},{"FEATURE_ID":1658037,"PLACE_NAME":"Berkeley - CA","STATE_ALPHA":"CA","FEATURE_NAME":"Berkeley","PRIM_LAT_DEC":37.8715926,"PRIM_LONG_DEC":-122.272747},{"FEATURE_ID":1656005,"PLACE_NAME":"Fairfield - CA","STATE_ALPHA":"CA","FEATURE_NAME":"Fairfield","PRIM_LAT_DEC":38.2493581,"PRIM_LONG_DEC":-122.0399663},{"FEATURE_ID":1667919,"PLACE_NAME":"Murrieta - CA","STATE_ALPHA":"CA","FEATURE_NAME":"Murrieta","PRIM_LAT_DEC":33.5539143,"PRIM_LONG_DEC":-117.2139232},{"FEATURE_ID":1652702,"PLACE_NAME":"El Monte - CA","STATE_ALPHA":"CA","FEATURE_NAME":"El Monte","PRIM_LAT_DEC":34.0686207,"PRIM_LONG_DEC":-118.0275667},{"FEATURE_ID":1660437,"PLACE_NAME":"Carlsbad - CA","STATE_ALPHA":"CA","FEATURE_NAME":"Carlsbad","PRIM_LAT_DEC":33.1580933,"PRIM_LONG_DEC":-117.3505939},{"FEATURE_ID":1652799,"PLACE_NAME":"Temecula - CA","STATE_ALPHA":"CA","FEATURE_NAME":"Temecula","PRIM_LAT_DEC":33.4936391,"PRIM_LONG_DEC":-117.1483648},{"FEATURE_ID":1656303,"PLACE_NAME":"Clovis - CA","STATE_ALPHA":"CA","FEATURE_NAME":"Clovis","PRIM_LAT_DEC":36.8252277,"PRIM_LONG_DEC":-119.7029194},{"FEATURE_ID":1652692,"PLACE_NAME":"Costa Mesa - CA","STATE_ALPHA":"CA","FEATURE_NAME":"Costa Mesa","PRIM_LAT_DEC":33.6411316,"PRIM_LONG_DEC":-117.9186689},{"FEATURE_ID":1657936,"PLACE_NAME":"Antioch - CA","STATE_ALPHA":"CA","FEATURE_NAME":"Antioch","PRIM_LAT_DEC":38.0049214,"PRIM_LONG_DEC":-121.805789},{"FEATURE_ID":1652698,"PLACE_NAME":"Downey - CA","STATE_ALPHA":"CA","FEATURE_NAME":"Downey","PRIM_LAT_DEC":33.9400143,"PRIM_LONG_DEC":-118.1325688},{"FEATURE_ID":1659507,"PLACE_NAME":"Richmond - CA","STATE_ALPHA":"CA","FEATURE_NAME":"Richmond","PRIM_LAT_DEC":37.9357576,"PRIM_LONG_DEC":-122.3477486},{"FEATURE_ID":1660799,"PLACE_NAME":"Inglewood - CA","STATE_ALPHA":"CA","FEATURE_NAME":"Inglewood","PRIM_LAT_DEC":33.9616801,"PRIM_LONG_DEC":-118.3531311},{"FEATURE_ID":1652791,"PLACE_NAME":"Santa Maria - CA","STATE_ALPHA":"CA","FEATURE_NAME":"Santa Maria","PRIM_LAT_DEC":34.9530337,"PRIM_LONG_DEC":-120.4357191},{"FEATURE_ID":1682650,"PLACE_NAME":"Santa Maria - CA","STATE_ALPHA":"CA","FEATURE_NAME":"Santa Maria","PRIM_LAT_DEC":34.1313951,"PRIM_LONG_DEC":-118.5745291},{"FEATURE_ID":1658369,"PLACE_NAME":"Daly City - CA","STATE_ALPHA":"CA","FEATURE_NAME":"Daly City","PRIM_LAT_DEC":37.7058333,"PRIM_LONG_DEC":-122.4619444},{"FEATURE_ID":1652809,"PLACE_NAME":"West Covina - CA","STATE_ALPHA":"CA","FEATURE_NAME":"West Covina","PRIM_LAT_DEC":34.0686208,"PRIM_LONG_DEC":-117.9389526},{"FEATURE_ID":1659584,"PLACE_NAME":"San Mateo - CA","STATE_ALPHA":"CA","FEATURE_NAME":"San Mateo","PRIM_LAT_DEC":37.5629917,"PRIM_LONG_DEC":-122.3255254},{"FEATURE_ID":1661123,"PLACE_NAME":"Norwalk - CA","STATE_ALPHA":"CA","FEATURE_NAME":"Norwalk","PRIM_LAT_DEC":33.9022367,"PRIM_LONG_DEC":-118.081733},{"FEATURE_ID":1661306,"PLACE_NAME":"Rialto - CA","STATE_ALPHA":"CA","FEATURE_NAME":"Rialto","PRIM_LAT_DEC":34.1064001,"PRIM_LONG_DEC":-117.3703235},{"FEATURE_ID":1655890,"PLACE_NAME":"Chico - CA","STATE_ALPHA":"CA","FEATURE_NAME":"Chico","PRIM_LAT_DEC":39.7284945,"PRIM_LONG_DEC":-121.8374777},{"FEATURE_ID":1652701,"PLACE_NAME":"El Cajon - CA","STATE_ALPHA":"CA","FEATURE_NAME":"El Cajon","PRIM_LAT_DEC":32.7947731,"PRIM_LONG_DEC":-116.9625269},{"FEATURE_ID":277480,"PLACE_NAME":"Burbank - CA","STATE_ALPHA":"CA","FEATURE_NAME":"Burbank","PRIM_LAT_DEC":37.3232752,"PRIM_LONG_DEC":-121.9316233},{"FEATURE_ID":1652677,"PLACE_NAME":"Burbank - CA","STATE_ALPHA":"CA","FEATURE_NAME":"Burbank","PRIM_LAT_DEC":34.1808392,"PRIM_LONG_DEC":-118.3089661},{"FEATURE_ID":1661645,"PLACE_NAME":"Vista - CA","STATE_ALPHA":"CA","FEATURE_NAME":"Vista","PRIM_LAT_DEC":33.2000368,"PRIM_LONG_DEC":-117.2425355},{"FEATURE_ID":277624,"PLACE_NAME":"Vacaville - CA","STATE_ALPHA":"CA","FEATURE_NAME":"Vacaville","PRIM_LAT_DEC":38.3565773,"PRIM_LONG_DEC":-121.9877444},{"FEATURE_ID":1661388,"PLACE_NAME":"San Marcos - CA","STATE_ALPHA":"CA","FEATURE_NAME":"San Marcos","PRIM_LAT_DEC":33.1433723,"PRIM_LONG_DEC":-117.1661449},{"FEATURE_ID":1652720,"PLACE_NAME":"Hesperia - CA","STATE_ALPHA":"CA","FEATURE_NAME":"Hesperia","PRIM_LAT_DEC":34.4263886,"PRIM_LONG_DEC":-117.3008784},{"FEATURE_ID":1652689,"PLACE_NAME":"Compton - CA","STATE_ALPHA":"CA","FEATURE_NAME":"Compton","PRIM_LAT_DEC":33.8958492,"PRIM_LONG_DEC":-118.2200712},{"FEATURE_ID":252936,"PLACE_NAME":"Menifee - CA","STATE_ALPHA":"CA","FEATURE_NAME":"Menifee","PRIM_LAT_DEC":33.728354,"PRIM_LONG_DEC":-117.1464209},{"FEATURE_ID":277621,"PLACE_NAME":"Tracy - CA","STATE_ALPHA":"CA","FEATURE_NAME":"Tracy","PRIM_LAT_DEC":37.7396513,"PRIM_LONG_DEC":-121.4252227},{"FEATURE_ID":1661045,"PLACE_NAME":"Mission Viejo - CA","STATE_ALPHA":"CA","FEATURE_NAME":"Mission Viejo","PRIM_LAT_DEC":33.6000233,"PRIM_LONG_DEC":-117.6719953},{"FEATURE_ID":1660477,"PLACE_NAME":"Chino - CA","STATE_ALPHA":"CA","FEATURE_NAME":"Chino","PRIM_LAT_DEC":34.0122346,"PRIM_LONG_DEC":-117.688944},{"FEATURE_ID":1652795,"PLACE_NAME":"South Gate - CA","STATE_ALPHA":"CA","FEATURE_NAME":"South Gate","PRIM_LAT_DEC":33.954737,"PRIM_LONG_DEC":-118.2120161},{"FEATURE_ID":277582,"PLACE_NAME":"Redding - CA","STATE_ALPHA":"CA","FEATURE_NAME":"Redding","PRIM_LAT_DEC":40.5865396,"PRIM_LONG_DEC":-122.3916754},{"FEATURE_ID":1652727,"PLACE_NAME":"Indio - CA","STATE_ALPHA":"CA","FEATURE_NAME":"Indio","PRIM_LAT_DEC":33.7205771,"PRIM_LONG_DEC":-116.2155619},{"FEATURE_ID":1660441,"PLACE_NAME":"Carson - CA","STATE_ALPHA":"CA","FEATURE_NAME":"Carson","PRIM_LAT_DEC":33.8314058,"PRIM_LONG_DEC":-118.2820165},{"FEATURE_ID":1661401,"PLACE_NAME":"Santa Barbara - CA","STATE_ALPHA":"CA","FEATURE_NAME":"Santa Barbara","PRIM_LAT_DEC":34.4208305,"PRIM_LONG_DEC":-119.6981901},{"FEATURE_ID":1652811,"PLACE_NAME":"Westminster - CA","STATE_ALPHA":"CA","FEATURE_NAME":"Westminster","PRIM_LAT_DEC":33.759183,"PRIM_LONG_DEC":-118.0067271},{"FEATURE_ID":1652792,"PLACE_NAME":"Santa Monica - CA","STATE_ALPHA":"CA","FEATURE_NAME":"Santa Monica","PRIM_LAT_DEC":34.0194543,"PRIM_LONG_DEC":-118.4911912},{"FEATURE_ID":277542,"PLACE_NAME":"Livermore - CA","STATE_ALPHA":"CA","FEATURE_NAME":"Livermore","PRIM_LAT_DEC":37.6818745,"PRIM_LONG_DEC":-121.7680088},{"FEATURE_ID":1659582,"PLACE_NAME":"San Leandro - CA","STATE_ALPHA":"CA","FEATURE_NAME":"San Leandro","PRIM_LAT_DEC":37.7249296,"PRIM_LONG_DEC":-122.1560768},{"FEATURE_ID":1655900,"PLACE_NAME":"Citrus Heights - CA","STATE_ALPHA":"CA","FEATURE_NAME":"Citrus Heights","PRIM_LAT_DEC":38.7071247,"PRIM_LONG_DEC":-121.2810611},{"FEATURE_ID":1652717,"PLACE_NAME":"Hawthorne - CA","STATE_ALPHA":"CA","FEATURE_NAME":"Hawthorne","PRIM_LAT_DEC":33.9164032,"PRIM_LONG_DEC":-118.3525748},{"FEATURE_ID":277584,"PLACE_NAME":"Redwood City - CA","STATE_ALPHA":"CA","FEATURE_NAME":"Redwood City","PRIM_LAT_DEC":37.4852152,"PRIM_LONG_DEC":-122.2363548},{"FEATURE_ID":1656503,"PLACE_NAME":"Lake Forest - CA","STATE_ALPHA":"CA","FEATURE_NAME":"Lake Forest","PRIM_LAT_DEC":33.6469661,"PRIM_LONG_DEC":-117.689218},{"FEATURE_ID":1662304,"PLACE_NAME":"Lake Forest - CA","STATE_ALPHA":"CA","FEATURE_NAME":"Lake Forest","PRIM_LAT_DEC":39.1843513,"PRIM_LONG_DEC":-120.114636},{"FEATURE_ID":1652718,"PLACE_NAME":"Hemet - CA","STATE_ALPHA":"CA","FEATURE_NAME":"Hemet","PRIM_LAT_DEC":33.7475203,"PRIM_LONG_DEC":-116.9719684},{"FEATURE_ID":1652813,"PLACE_NAME":"Whittier - CA","STATE_ALPHA":"CA","FEATURE_NAME":"Whittier","PRIM_LAT_DEC":33.9791793,"PRIM_LONG_DEC":-118.032844},{"FEATURE_ID":1661104,"PLACE_NAME":"Newport Beach - CA","STATE_ALPHA":"CA","FEATURE_NAME":"Newport Beach","PRIM_LAT_DEC":33.6189101,"PRIM_LONG_DEC":-117.9289469},{"FEATURE_ID":1659759,"PLACE_NAME":"Milpitas - CA","STATE_ALPHA":"CA","FEATURE_NAME":"Milpitas","PRIM_LAT_DEC":37.4282724,"PRIM_LONG_DEC":-121.9066238},{"FEATURE_ID":1668255,"PLACE_NAME":"Chino Hills - CA","STATE_ALPHA":"CA","FEATURE_NAME":"Chino Hills","PRIM_LAT_DEC":33.993796,"PRIM_LONG_DEC":-117.758884},{"FEATURE_ID":1660243,"PLACE_NAME":"Alhambra - CA","STATE_ALPHA":"CA","FEATURE_NAME":"Alhambra","PRIM_LAT_DEC":34.095287,"PRIM_LONG_DEC":-118.1270146},{"FEATURE_ID":1659751,"PLACE_NAME":"Merced - CA","STATE_ALPHA":"CA","FEATURE_NAME":"Merced","PRIM_LAT_DEC":37.3021633,"PRIM_LONG_DEC":-120.4829677},{"FEATURE_ID":1659046,"PLACE_NAME":"Manteca - CA","STATE_ALPHA":"CA","FEATURE_NAME":"Manteca","PRIM_LAT_DEC":37.7974273,"PRIM_LONG_DEC":-121.2160526},{"FEATURE_ID":246299,"PLACE_NAME":"Mountain View - CA","STATE_ALPHA":"CA","FEATURE_NAME":"Mountain View","PRIM_LAT_DEC":34.5063847,"PRIM_LONG_DEC":-117.3586577},{"FEATURE_ID":277611,"PLACE_NAME":"Mountain View - CA","STATE_ALPHA":"CA","FEATURE_NAME":"Mountain View","PRIM_LAT_DEC":37.3860517,"PRIM_LONG_DEC":-122.0838511},{"FEATURE_ID":1853402,"PLACE_NAME":"Mountain View - CA","STATE_ALPHA":"CA","FEATURE_NAME":"Mountain View","PRIM_LAT_DEC":38.0088105,"PRIM_LONG_DEC":-122.1174648},{"FEATURE_ID":1870124,"PLACE_NAME":"Mountain View - CA","STATE_ALPHA":"CA","FEATURE_NAME":"Mountain View","PRIM_LAT_DEC":32.6992189,"PRIM_LONG_DEC":-117.1128086},{"FEATURE_ID":1652676,"PLACE_NAME":"Buena Park - CA","STATE_ALPHA":"CA","FEATURE_NAME":"Buena Park","PRIM_LAT_DEC":33.8675143,"PRIM_LONG_DEC":-117.9981181},{"FEATURE_ID":277578,"PLACE_NAME":"Pleasanton - CA","STATE_ALPHA":"CA","FEATURE_NAME":"Pleasanton","PRIM_LAT_DEC":37.6624312,"PRIM_LONG_DEC":-121.8746789},{"FEATURE_ID":277516,"PLACE_NAME":"Folsom - CA","STATE_ALPHA":"CA","FEATURE_NAME":"Folsom","PRIM_LAT_DEC":38.6779591,"PRIM_LONG_DEC":-121.1760583},{"FEATURE_ID":1661590,"PLACE_NAME":"Tustin - CA","STATE_ALPHA":"CA","FEATURE_NAME":"Tustin","PRIM_LAT_DEC":33.7458511,"PRIM_LONG_DEC":-117.826166},{"FEATURE_ID":1660883,"PLACE_NAME":"Lakewood - CA","STATE_ALPHA":"CA","FEATURE_NAME":"Lakewood","PRIM_LAT_DEC":33.8536269,"PRIM_LONG_DEC":-118.1339563},{"FEATURE_ID":1652772,"PLACE_NAME":"Perris - CA","STATE_ALPHA":"CA","FEATURE_NAME":"Perris","PRIM_LAT_DEC":33.7825194,"PRIM_LONG_DEC":-117.2286478},{"FEATURE_ID":277561,"PLACE_NAME":"Napa - CA","STATE_ALPHA":"CA","FEATURE_NAME":"Napa","PRIM_LAT_DEC":38.2971367,"PRIM_LONG_DEC":-122.2855293},{"FEATURE_ID":238466,"PLACE_NAME":"Alameda - CA","STATE_ALPHA":"CA","FEATURE_NAME":"Alameda","PRIM_LAT_DEC":35.2377397,"PRIM_LONG_DEC":-119.0031582},{"FEATURE_ID":277468,"PLACE_NAME":"Alameda - CA","STATE_ALPHA":"CA","FEATURE_NAME":"Alameda","PRIM_LAT_DEC":37.7652065,"PRIM_LONG_DEC":-122.2416355},{"FEATURE_ID":1661606,"PLACE_NAME":"Upland - CA","STATE_ALPHA":"CA","FEATURE_NAME":"Upland","PRIM_LAT_DEC":34.09751,"PRIM_LONG_DEC":-117.6483876},{"FEATURE_ID":1652671,"PLACE_NAME":"Bellflower - CA","STATE_ALPHA":"CA","FEATURE_NAME":"Bellflower","PRIM_LAT_DEC":33.8816819,"PRIM_LONG_DEC":-118.1170117},{"FEATURE_ID":1656275,"PLACE_NAME":"San Ramon - CA","STATE_ALPHA":"CA","FEATURE_NAME":"San Ramon","PRIM_LAT_DEC":37.7799273,"PRIM_LONG_DEC":-121.9780153},{"FEATURE_ID":1652669,"PLACE_NAME":"Baldwin Park - CA","STATE_ALPHA":"CA","FEATURE_NAME":"Baldwin Park","PRIM_LAT_DEC":34.0852868,"PRIM_LONG_DEC":-117.9608978},{"FEATURE_ID":1659466,"PLACE_NAME":"Rancho Cordova - CA","STATE_ALPHA":"CA","FEATURE_NAME":"Rancho Cordova","PRIM_LAT_DEC":38.5890723,"PRIM_LONG_DEC":-121.302728},{"FEATURE_ID":236787,"PLACE_NAME":"Union City - CA","STATE_ALPHA":"CA","FEATURE_NAME":"Union City","PRIM_LAT_DEC":37.5958333,"PRIM_LONG_DEC":-122.0191667},{"FEATURE_ID":277622,"PLACE_NAME":"Turlock - CA","STATE_ALPHA":"CA","FEATURE_NAME":"Turlock","PRIM_LAT_DEC":37.4946568,"PRIM_LONG_DEC":-120.8465941},{"FEATURE_ID":1659783,"PLACE_NAME":"Pittsburg - CA","STATE_ALPHA":"CA","FEATURE_NAME":"Pittsburg","PRIM_LAT_DEC":38.0279762,"PRIM_LONG_DEC":-121.8846806},{"FEATURE_ID":252966,"PLACE_NAME":"Redlands - CA","STATE_ALPHA":"CA","FEATURE_NAME":"Redlands","PRIM_LAT_DEC":34.0555693,"PRIM_LONG_DEC":-117.1825381},{"FEATURE_ID":1660120,"PLACE_NAME":"Walnut Creek - CA","STATE_ALPHA":"CA","FEATURE_NAME":"Walnut Creek","PRIM_LAT_DEC":37.9063131,"PRIM_LONG_DEC":-122.064963},{"FEATURE_ID":1652682,"PLACE_NAME":"Camarillo - CA","STATE_ALPHA":"CA","FEATURE_NAME":"Camarillo","PRIM_LAT_DEC":34.2163937,"PRIM_LONG_DEC":-119.0376023},{"FEATURE_ID":1660965,"PLACE_NAME":"Lynwood - CA","STATE_ALPHA":"CA","FEATURE_NAME":"Lynwood","PRIM_LAT_DEC":33.930293,"PRIM_LONG_DEC":-118.2114603},{"FEATURE_ID":277498,"PLACE_NAME":"Davis - CA","STATE_ALPHA":"CA","FEATURE_NAME":"Davis","PRIM_LAT_DEC":38.5449065,"PRIM_LONG_DEC":-121.7405167},{"FEATURE_ID":1652704,"PLACE_NAME":"Lake Elsinore - CA","STATE_ALPHA":"CA","FEATURE_NAME":"Lake Elsinore","PRIM_LAT_DEC":33.6680772,"PRIM_LONG_DEC":-117.3272615},{"FEATURE_ID":277586,"PLACE_NAME":"Rocklin - CA","STATE_ALPHA":"CA","FEATURE_NAME":"Rocklin","PRIM_LAT_DEC":38.7907339,"PRIM_LONG_DEC":-121.2357828},{"FEATURE_ID":277618,"PLACE_NAME":"South San Francisco - CA","STATE_ALPHA":"CA","FEATURE_NAME":"South San Francisco","PRIM_LAT_DEC":37.6547222,"PRIM_LONG_DEC":-122.4077778},{"FEATURE_ID":1652817,"PLACE_NAME":"Yorba Linda - CA","STATE_ALPHA":"CA","FEATURE_NAME":"Yorba Linda","PRIM_LAT_DEC":33.8886259,"PRIM_LONG_DEC":-117.8131125},{"FEATURE_ID":277608,"PLACE_NAME":"Lodi - CA","STATE_ALPHA":"CA","FEATURE_NAME":"Lodi","PRIM_LAT_DEC":38.1301968,"PRIM_LONG_DEC":-121.2724473},{"FEATURE_ID":1660222,"PLACE_NAME":"Yuba City - CA","STATE_ALPHA":"CA","FEATURE_NAME":"Yuba City","PRIM_LAT_DEC":39.1404477,"PRIM_LONG_DEC":-121.6169108},{"FEATURE_ID":1652782,"PLACE_NAME":"Redondo Beach - CA","STATE_ALPHA":"CA","FEATURE_NAME":"Redondo Beach","PRIM_LAT_DEC":33.8491667,"PRIM_LONG_DEC":-118.3883333},{"FEATURE_ID":1660875,"PLACE_NAME":"Laguna Niguel - CA","STATE_ALPHA":"CA","FEATURE_NAME":"Laguna Niguel","PRIM_LAT_DEC":33.5225261,"PRIM_LONG_DEC":-117.7075526},{"FEATURE_ID":277552,"PLACE_NAME":"Madera - CA","STATE_ALPHA":"CA","FEATURE_NAME":"Madera","PRIM_LAT_DEC":36.9613356,"PRIM_LONG_DEC":-120.0607176},{"FEATURE_ID":1652803,"PLACE_NAME":"Tulare - CA","STATE_ALPHA":"CA","FEATURE_NAME":"Tulare","PRIM_LAT_DEC":36.2077288,"PRIM_LONG_DEC":-119.3473379},{"FEATURE_ID":277572,"PLACE_NAME":"Palo Alto - CA","STATE_ALPHA":"CA","FEATURE_NAME":"Palo Alto","PRIM_LAT_DEC":37.4418834,"PRIM_LONG_DEC":-122.1430195},{"FEATURE_ID":1655980,"PLACE_NAME":"Dublin - CA","STATE_ALPHA":"CA","FEATURE_NAME":"Dublin","PRIM_LAT_DEC":37.7021521,"PRIM_LONG_DEC":-121.9357918},{"FEATURE_ID":1659596,"PLACE_NAME":"Santa Cruz - CA","STATE_ALPHA":"CA","FEATURE_NAME":"Santa Cruz","PRIM_LAT_DEC":36.9741171,"PRIM_LONG_DEC":-122.0307963},{"FEATURE_ID":1661376,"PLACE_NAME":"San Clemente - CA","STATE_ALPHA":"CA","FEATURE_NAME":"San Clemente","PRIM_LAT_DEC":33.4269728,"PRIM_LONG_DEC":-117.6119925},{"FEATURE_ID":277479,"PLACE_NAME":"Brentwood - CA","STATE_ALPHA":"CA","FEATURE_NAME":"Brentwood","PRIM_LAT_DEC":37.931868,"PRIM_LONG_DEC":-121.6957863},{"FEATURE_ID":1660377,"PLACE_NAME":"Brentwood - CA","STATE_ALPHA":"CA","FEATURE_NAME":"Brentwood","PRIM_LAT_DEC":34.0519536,"PRIM_LONG_DEC":-118.4739692},{"FEATURE_ID":2650583,"PLACE_NAME":"Eastvale - CA","STATE_ALPHA":"CA","FEATURE_NAME":"Eastvale","PRIM_LAT_DEC":33.9635796,"PRIM_LONG_DEC":-117.5641823},{"FEATURE_ID":1652705,"PLACE_NAME":"Encinitas - CA","STATE_ALPHA":"CA","FEATURE_NAME":"Encinitas","PRIM_LAT_DEC":33.0369867,"PRIM_LONG_DEC":-117.2919818},{"FEATURE_ID":1652773,"PLACE_NAME":"Pico Rivera - CA","STATE_ALPHA":"CA","FEATURE_NAME":"Pico Rivera","PRIM_LAT_DEC":33.9830688,"PRIM_LONG_DEC":-118.096735},{"FEATURE_ID":1656573,"PLACE_NAME":"Montebello - CA","STATE_ALPHA":"CA","FEATURE_NAME":"Montebello","PRIM_LAT_DEC":34.0094444,"PRIM_LONG_DEC":-118.1052778},{"FEATURE_ID":1661090,"PLACE_NAME":"National City - CA","STATE_ALPHA":"CA","FEATURE_NAME":"National City","PRIM_LAT_DEC":32.6780556,"PRIM_LONG_DEC":-117.0991667},{"FEATURE_ID":1652659,"PLACE_NAME":"Woodland - CA","STATE_ALPHA":"CA","FEATURE_NAME":"Woodland","PRIM_LAT_DEC":38.6785157,"PRIM_LONG_DEC":-121.7732971},{"FEATURE_ID":277575,"PLACE_NAME":"Petaluma - CA","STATE_ALPHA":"CA","FEATURE_NAME":"Petaluma","PRIM_LAT_DEC":38.232417,"PRIM_LONG_DEC":-122.6366524},{"FEATURE_ID":1652735,"PLACE_NAME":"La Habra - CA","STATE_ALPHA":"CA","FEATURE_NAME":"La Habra","PRIM_LAT_DEC":33.9319578,"PRIM_LONG_DEC":-117.9461734},{"FEATURE_ID":1652753,"PLACE_NAME":"Monterey Park - CA","STATE_ALPHA":"CA","FEATURE_NAME":"Monterey Park","PRIM_LAT_DEC":34.0625106,"PRIM_LONG_DEC":-118.1228476},{"FEATURE_ID":1652779,"PLACE_NAME":"Porterville - CA","STATE_ALPHA":"CA","FEATURE_NAME":"Porterville","PRIM_LAT_DEC":36.06523,"PRIM_LONG_DEC":-119.0167679},{"FEATURE_ID":1660664,"PLACE_NAME":"Gardena - CA","STATE_ALPHA":"CA","FEATURE_NAME":"Gardena","PRIM_LAT_DEC":33.8883487,"PRIM_LONG_DEC":-118.3089624},{"FEATURE_ID":277496,"PLACE_NAME":"Cupertino - CA","STATE_ALPHA":"CA","FEATURE_NAME":"Cupertino","PRIM_LAT_DEC":37.3229978,"PRIM_LONG_DEC":-122.0321823},{"FEATURE_ID":1660859,"PLACE_NAME":"La Mesa - CA","STATE_ALPHA":"CA","FEATURE_NAME":"La Mesa","PRIM_LAT_DEC":32.7677778,"PRIM_LONG_DEC":-117.0230556},{"FEATURE_ID":277523,"PLACE_NAME":"Gilroy - CA","STATE_ALPHA":"CA","FEATURE_NAME":"Gilroy","PRIM_LAT_DEC":37.0057816,"PRIM_LONG_DEC":-121.5682751},{"FEATURE_ID":1659589,"PLACE_NAME":"San Rafael - CA","STATE_ALPHA":"CA","FEATURE_NAME":"San Rafael","PRIM_LAT_DEC":37.9736111,"PRIM_LONG_DEC":-122.5311111},{"FEATURE_ID":1656619,"PLACE_NAME":"Santee - CA","STATE_ALPHA":"CA","FEATURE_NAME":"Santee","PRIM_LAT_DEC":32.8383828,"PRIM_LONG_DEC":-116.9739167},{"FEATURE_ID":1652664,"PLACE_NAME":"Arcadia - CA","STATE_ALPHA":"CA","FEATURE_NAME":"Arcadia","PRIM_LAT_DEC":34.1397292,"PRIM_LONG_DEC":-118.0353449},{"FEATURE_ID":1660714,"PLACE_NAME":"Hanford - CA","STATE_ALPHA":"CA","FEATURE_NAME":"Hanford","PRIM_LAT_DEC":36.3274502,"PRIM_LONG_DEC":-119.6456844},{"FEATURE_ID":1660778,"PLACE_NAME":"Huntington Park - CA","STATE_ALPHA":"CA","FEATURE_NAME":"Huntington Park","PRIM_LAT_DEC":33.9816812,"PRIM_LONG_DEC":-118.2250725},{"FEATURE_ID":1660549,"PLACE_NAME":"Diamond Bar - CA","STATE_ALPHA":"CA","FEATURE_NAME":"Diamond Bar","PRIM_LAT_DEC":34.0286226,"PRIM_LONG_DEC":-117.8103367},{"FEATURE_ID":277612,"PLACE_NAME":"Novato - CA","STATE_ALPHA":"CA","FEATURE_NAME":"Novato","PRIM_LAT_DEC":38.1074199,"PRIM_LONG_DEC":-122.5697032},{"FEATURE_ID":1652722,"PLACE_NAME":"Highland - CA","STATE_ALPHA":"CA","FEATURE_NAME":"Highland","PRIM_LAT_DEC":34.1283442,"PRIM_LONG_DEC":-117.2086513},{"FEATURE_ID":1652712,"PLACE_NAME":"Fountain Valley - CA","STATE_ALPHA":"CA","FEATURE_NAME":"Fountain Valley","PRIM_LAT_DEC":33.7091847,"PRIM_LONG_DEC":-117.9536697},{"FEATURE_ID":1656454,"PLACE_NAME":"Cathedral City - CA","STATE_ALPHA":"CA","FEATURE_NAME":"Cathedral City","PRIM_LAT_DEC":33.7797426,"PRIM_LONG_DEC":-116.4652911},{"FEATURE_ID":1652688,"PLACE_NAME":"Colton - CA","STATE_ALPHA":"CA","FEATURE_NAME":"Colton","PRIM_LAT_DEC":34.0739016,"PRIM_LONG_DEC":-117.3136547},{"FEATURE_ID":1656611,"PLACE_NAME":"Rosemead - CA","STATE_ALPHA":"CA","FEATURE_NAME":"Rosemead","PRIM_LAT_DEC":34.0805651,"PRIM_LONG_DEC":-118.072846},{"FEATURE_ID":1652771,"PLACE_NAME":"Paramount - CA","STATE_ALPHA":"CA","FEATURE_NAME":"Paramount","PRIM_LAT_DEC":33.8894598,"PRIM_LONG_DEC":-118.1597911},{"FEATURE_ID":1652818,"PLACE_NAME":"Yucaipa - CA","STATE_ALPHA":"CA","FEATURE_NAME":"Yucaipa","PRIM_LAT_DEC":34.033625,"PRIM_LONG_DEC":-117.0430865},{"FEATURE_ID":1660138,"PLACE_NAME":"Watsonville - CA","STATE_ALPHA":"CA","FEATURE_NAME":"Watsonville","PRIM_LAT_DEC":36.910231,"PRIM_LONG_DEC":-121.7568946},{"FEATURE_ID":1652697,"PLACE_NAME":"Delano - CA","STATE_ALPHA":"CA","FEATURE_NAME":"Delano","PRIM_LAT_DEC":35.7688425,"PRIM_LONG_DEC":-119.2470536},{"FEATURE_ID":1660149,"PLACE_NAME":"West Sacramento - CA","STATE_ALPHA":"CA","FEATURE_NAME":"West Sacramento","PRIM_LAT_DEC":38.5804609,"PRIM_LONG_DEC":-121.530234},{"FEATURE_ID":1652767,"PLACE_NAME":"Palm Desert - CA","STATE_ALPHA":"CA","FEATURE_NAME":"Palm Desert","PRIM_LAT_DEC":33.7222445,"PRIM_LONG_DEC":-116.3744556},{"FEATURE_ID":1652713,"PLACE_NAME":"Glendora - CA","STATE_ALPHA":"CA","FEATURE_NAME":"Glendora","PRIM_LAT_DEC":34.1361187,"PRIM_LONG_DEC":-117.865339},{"FEATURE_ID":1661237,"PLACE_NAME":"Placentia - CA","STATE_ALPHA":"CA","FEATURE_NAME":"Placentia","PRIM_LAT_DEC":33.8722371,"PRIM_LONG_DEC":-117.8703363},{"FEATURE_ID":1660318,"PLACE_NAME":"Beaumont - CA","STATE_ALPHA":"CA","FEATURE_NAME":"Beaumont","PRIM_LAT_DEC":33.9294606,"PRIM_LONG_DEC":-116.977248},{"FEATURE_ID":252532,"PLACE_NAME":"Aliso Viejo - CA","STATE_ALPHA":"CA","FEATURE_NAME":"Aliso Viejo","PRIM_LAT_DEC":33.565038,"PRIM_LONG_DEC":-117.727116},{"FEATURE_ID":241229,"PLACE_NAME":"Cerritos - CA","STATE_ALPHA":"CA","FEATURE_NAME":"Cerritos","PRIM_LAT_DEC":33.8583484,"PRIM_LONG_DEC":-118.0647871},{"FEATURE_ID":423587,"PLACE_NAME":"Chicago - IL","STATE_ALPHA":"IL","FEATURE_NAME":"Chicago","PRIM_LAT_DEC":41.850033,"PRIM_LONG_DEC":-87.6500523},{"FEATURE_ID":403732,"PLACE_NAME":"Aurora - IL","STATE_ALPHA":"IL","FEATURE_NAME":"Aurora","PRIM_LAT_DEC":41.7605849,"PRIM_LONG_DEC":-88.3200715},{"FEATURE_ID":421954,"PLACE_NAME":"Naperville - IL","STATE_ALPHA":"IL","FEATURE_NAME":"Naperville","PRIM_LAT_DEC":41.7858629,"PRIM_LONG_DEC":-88.1472893},{"FEATURE_ID":411192,"PLACE_NAME":"Joliet - IL","STATE_ALPHA":"IL","FEATURE_NAME":"Joliet","PRIM_LAT_DEC":41.525031,"PRIM_LONG_DEC":-88.0817252},{"FEATURE_ID":416843,"PLACE_NAME":"Rockford - IL","STATE_ALPHA":"IL","FEATURE_NAME":"Rockford","PRIM_LAT_DEC":42.2711311,"PRIM_LONG_DEC":-89.0939952},{"FEATURE_ID":426595,"PLACE_NAME":"Springfield - IL","STATE_ALPHA":"IL","FEATURE_NAME":"Springfield","PRIM_LAT_DEC":39.8017171,"PRIM_LONG_DEC":-89.6437107},{"FEATURE_ID":407859,"PLACE_NAME":"Elgin - IL","STATE_ALPHA":"IL","FEATURE_NAME":"Elgin","PRIM_LAT_DEC":42.0372487,"PRIM_LONG_DEC":-88.2811895},{"FEATURE_ID":415536,"PLACE_NAME":"Peoria - IL","STATE_ALPHA":"IL","FEATURE_NAME":"Peoria","PRIM_LAT_DEC":40.6936488,"PRIM_LONG_DEC":-89.5889864},{"FEATURE_ID":405936,"PLACE_NAME":"Champaign - IL","STATE_ALPHA":"IL","FEATURE_NAME":"Champaign","PRIM_LAT_DEC":40.1164205,"PRIM_LONG_DEC":-88.2433829},{"FEATURE_ID":420650,"PLACE_NAME":"Waukegan - IL","STATE_ALPHA":"IL","FEATURE_NAME":"Waukegan","PRIM_LAT_DEC":42.3636331,"PRIM_LONG_DEC":-87.8447938},{"FEATURE_ID":404579,"PLACE_NAME":"Bloomington - IL","STATE_ALPHA":"IL","FEATURE_NAME":"Bloomington","PRIM_LAT_DEC":40.4842027,"PRIM_LONG_DEC":-88.9936873},{"FEATURE_ID":408101,"PLACE_NAME":"Evanston - IL","STATE_ALPHA":"IL","FEATURE_NAME":"Evanston","PRIM_LAT_DEC":42.0411414,"PRIM_LONG_DEC":-87.6900587},{"FEATURE_ID":407044,"PLACE_NAME":"Decatur - IL","STATE_ALPHA":"IL","FEATURE_NAME":"Decatur","PRIM_LAT_DEC":39.8403147,"PRIM_LONG_DEC":-88.9548001},{"FEATURE_ID":407144,"PLACE_NAME":"Des Plaines - IL","STATE_ALPHA":"IL","FEATURE_NAME":"Des Plaines","PRIM_LAT_DEC":42.0333623,"PRIM_LONG_DEC":-87.8833991},{"FEATURE_ID":404233,"PLACE_NAME":"Berwyn - IL","STATE_ALPHA":"IL","FEATURE_NAME":"Berwyn","PRIM_LAT_DEC":41.8505874,"PRIM_LONG_DEC":-87.7936685},{"FEATURE_ID":422152,"PLACE_NAME":"Wheaton - IL","STATE_ALPHA":"IL","FEATURE_NAME":"Wheaton","PRIM_LAT_DEC":41.8661403,"PRIM_LONG_DEC":-88.1070127},{"FEATURE_ID":1380948,"PLACE_NAME":"Houston - TX","STATE_ALPHA":"TX","FEATURE_NAME":"Houston","PRIM_LAT_DEC":29.7632836,"PRIM_LONG_DEC":-95.3632715},{"FEATURE_ID":1380951,"PLACE_NAME":"San Antonio - TX","STATE_ALPHA":"TX","FEATURE_NAME":"San Antonio","PRIM_LAT_DEC":29.4241219,"PRIM_LONG_DEC":-98.4936282},{"FEATURE_ID":1380944,"PLACE_NAME":"Dallas - TX","STATE_ALPHA":"TX","FEATURE_NAME":"Dallas","PRIM_LAT_DEC":32.7830556,"PRIM_LONG_DEC":-96.8066667},{"FEATURE_ID":1384879,"PLACE_NAME":"Austin - TX","STATE_ALPHA":"TX","FEATURE_NAME":"Austin","PRIM_LAT_DEC":30.267153,"PRIM_LONG_DEC":-97.7430608},{"FEATURE_ID":1380947,"PLACE_NAME":"Fort Worth - TX","STATE_ALPHA":"TX","FEATURE_NAME":"Fort Worth","PRIM_LAT_DEC":32.725409,"PRIM_LONG_DEC":-97.3208496},{"FEATURE_ID":1380946,"PLACE_NAME":"El Paso - TX","STATE_ALPHA":"TX","FEATURE_NAME":"El Paso","PRIM_LAT_DEC":31.7587198,"PRIM_LONG_DEC":-106.4869314},{"FEATURE_ID":1372320,"PLACE_NAME":"Arlington - TX","STATE_ALPHA":"TX","FEATURE_NAME":"Arlington","PRIM_LAT_DEC":32.735687,"PRIM_LONG_DEC":-97.1080656},{"FEATURE_ID":1333380,"PLACE_NAME":"Corpus Christi - TX","STATE_ALPHA":"TX","FEATURE_NAME":"Corpus Christi","PRIM_LAT_DEC":27.8005828,"PRIM_LONG_DEC":-97.396381},{"FEATURE_ID":1344166,"PLACE_NAME":"Plano - TX","STATE_ALPHA":"TX","FEATURE_NAME":"Plano","PRIM_LAT_DEC":33.0198431,"PRIM_LONG_DEC":-96.6988856},{"FEATURE_ID":1339633,"PLACE_NAME":"Laredo - TX","STATE_ALPHA":"TX","FEATURE_NAME":"Laredo","PRIM_LAT_DEC":27.506407,"PRIM_LONG_DEC":-99.5075421},{"FEATURE_ID":1374760,"PLACE_NAME":"Lubbock - TX","STATE_ALPHA":"TX","FEATURE_NAME":"Lubbock","PRIM_LAT_DEC":33.5778631,"PRIM_LONG_DEC":-101.8551665},{"FEATURE_ID":1379825,"PLACE_NAME":"Garland - TX","STATE_ALPHA":"TX","FEATURE_NAME":"Garland","PRIM_LAT_DEC":33.5165025,"PRIM_LONG_DEC":-94.6693763},{"FEATURE_ID":1388185,"PLACE_NAME":"Garland - TX","STATE_ALPHA":"TX","FEATURE_NAME":"Garland","PRIM_LAT_DEC":32.912624,"PRIM_LONG_DEC":-96.6388833},{"FEATURE_ID":1338507,"PLACE_NAME":"Irving - TX","STATE_ALPHA":"TX","FEATURE_NAME":"Irving","PRIM_LAT_DEC":32.8140177,"PRIM_LONG_DEC":-96.9488945},{"FEATURE_ID":1336263,"PLACE_NAME":"Frisco - TX","STATE_ALPHA":"TX","FEATURE_NAME":"Frisco","PRIM_LAT_DEC":33.1506744,"PRIM_LONG_DEC":-96.8236116},{"FEATURE_ID":1351066,"PLACE_NAME":"Amarillo - TX","STATE_ALPHA":"TX","FEATURE_NAME":"Amarillo","PRIM_LAT_DEC":35.2219971,"PRIM_LONG_DEC":-101.8312969},{"FEATURE_ID":1341241,"PLACE_NAME":"McKinney - TX","STATE_ALPHA":"TX","FEATURE_NAME":"McKinney","PRIM_LAT_DEC":33.1976164,"PRIM_LONG_DEC":-96.6152693},{"FEATURE_ID":1336802,"PLACE_NAME":"Grand Prairie - TX","STATE_ALPHA":"TX","FEATURE_NAME":"Grand Prairie","PRIM_LAT_DEC":32.7459645,"PRIM_LONG_DEC":-96.9977846},{"FEATURE_ID":1372749,"PLACE_NAME":"Brownsville - TX","STATE_ALPHA":"TX","FEATURE_NAME":"Brownsville","PRIM_LAT_DEC":25.9017472,"PRIM_LONG_DEC":-97.4974838},{"FEATURE_ID":1360642,"PLACE_NAME":"Killeen - TX","STATE_ALPHA":"TX","FEATURE_NAME":"Killeen","PRIM_LAT_DEC":31.1171194,"PRIM_LONG_DEC":-97.7277959},{"FEATURE_ID":1343631,"PLACE_NAME":"Pasadena - TX","STATE_ALPHA":"TX","FEATURE_NAME":"Pasadena","PRIM_LAT_DEC":29.6910625,"PRIM_LONG_DEC":-95.2091006},{"FEATURE_ID":1341547,"PLACE_NAME":"Midland - TX","STATE_ALPHA":"TX","FEATURE_NAME":"Midland","PRIM_LAT_DEC":31.9973456,"PRIM_LONG_DEC":-102.0779147},{"FEATURE_ID":1374829,"PLACE_NAME":"McAllen - TX","STATE_ALPHA":"TX","FEATURE_NAME":"McAllen","PRIM_LAT_DEC":26.2034071,"PRIM_LONG_DEC":-98.2300124},{"FEATURE_ID":1334260,"PLACE_NAME":"Denton - TX","STATE_ALPHA":"TX","FEATURE_NAME":"Denton","PRIM_LAT_DEC":33.2148412,"PRIM_LONG_DEC":-97.1330683},{"FEATURE_ID":1378210,"PLACE_NAME":"Denton - TX","STATE_ALPHA":"TX","FEATURE_NAME":"Denton","PRIM_LAT_DEC":32.2587418,"PRIM_LONG_DEC":-99.5395219},{"FEATURE_ID":1341400,"PLACE_NAME":"Mesquite - TX","STATE_ALPHA":"TX","FEATURE_NAME":"Mesquite","PRIM_LAT_DEC":32.7667955,"PRIM_LONG_DEC":-96.5991593},{"FEATURE_ID":1378668,"PLACE_NAME":"Mesquite - TX","STATE_ALPHA":"TX","FEATURE_NAME":"Mesquite","PRIM_LAT_DEC":32.8703796,"PRIM_LONG_DEC":-101.6301417},{"FEATURE_ID":1332207,"PLACE_NAME":"Carrollton - TX","STATE_ALPHA":"TX","FEATURE_NAME":"Carrollton","PRIM_LAT_DEC":32.9537349,"PRIM_LONG_DEC":-96.8902816},{"FEATURE_ID":1370701,"PLACE_NAME":"Waco - TX","STATE_ALPHA":"TX","FEATURE_NAME":"Waco","PRIM_LAT_DEC":31.549333,"PRIM_LONG_DEC":-97.1466695},{"FEATURE_ID":1366966,"PLACE_NAME":"Round Rock - TX","STATE_ALPHA":"TX","FEATURE_NAME":"Round Rock","PRIM_LAT_DEC":30.5082551,"PRIM_LONG_DEC":-97.678896},{"FEATURE_ID":1329173,"PLACE_NAME":"Abilene - TX","STATE_ALPHA":"TX","FEATURE_NAME":"Abilene","PRIM_LAT_DEC":32.4487364,"PRIM_LONG_DEC":-99.7331439},{"FEATURE_ID":1343067,"PLACE_NAME":"Odessa - TX","STATE_ALPHA":"TX","FEATURE_NAME":"Odessa","PRIM_LAT_DEC":31.8456816,"PRIM_LONG_DEC":-102.3676431},{"FEATURE_ID":1343734,"PLACE_NAME":"Pearland - TX","STATE_ALPHA":"TX","FEATURE_NAME":"Pearland","PRIM_LAT_DEC":29.5635666,"PRIM_LONG_DEC":-95.2860474},{"FEATURE_ID":1345172,"PLACE_NAME":"Richardson - TX","STATE_ALPHA":"TX","FEATURE_NAME":"Richardson","PRIM_LAT_DEC":32.9481789,"PRIM_LONG_DEC":-96.7297206},{"FEATURE_ID":1348034,"PLACE_NAME":"Sugar Land - TX","STATE_ALPHA":"TX","FEATURE_NAME":"Sugar Land","PRIM_LAT_DEC":29.6196787,"PRIM_LONG_DEC":-95.6349463},{"FEATURE_ID":1354786,"PLACE_NAME":"College Station - TX","STATE_ALPHA":"TX","FEATURE_NAME":"College Station","PRIM_LAT_DEC":30.627977,"PRIM_LONG_DEC":-96.3344068},{"FEATURE_ID":1330268,"PLACE_NAME":"Beaumont - TX","STATE_ALPHA":"TX","FEATURE_NAME":"Beaumont","PRIM_LAT_DEC":30.0860459,"PRIM_LONG_DEC":-94.1018461},{"FEATURE_ID":1339860,"PLACE_NAME":"Lewisville - TX","STATE_ALPHA":"TX","FEATURE_NAME":"Lewisville","PRIM_LAT_DEC":33.046233,"PRIM_LONG_DEC":-96.994174},{"FEATURE_ID":1378581,"PLACE_NAME":"Lewisville - TX","STATE_ALPHA":"TX","FEATURE_NAME":"Lewisville","PRIM_LAT_DEC":30.0688308,"PRIM_LONG_DEC":-96.1141262},{"FEATURE_ID":1339753,"PLACE_NAME":"League City - TX","STATE_ALPHA":"TX","FEATURE_NAME":"League City","PRIM_LAT_DEC":29.5074538,"PRIM_LONG_DEC":-95.0949303},{"FEATURE_ID":1348998,"PLACE_NAME":"Tyler - TX","STATE_ALPHA":"TX","FEATURE_NAME":"Tyler","PRIM_LAT_DEC":32.3512601,"PRIM_LONG_DEC":-95.3010624},{"FEATURE_ID":1329377,"PLACE_NAME":"Allen - TX","STATE_ALPHA":"TX","FEATURE_NAME":"Allen","PRIM_LAT_DEC":33.1031744,"PRIM_LONG_DEC":-96.6705503},{"FEATURE_ID":1376776,"PLACE_NAME":"Wichita Falls - TX","STATE_ALPHA":"TX","FEATURE_NAME":"Wichita Falls","PRIM_LAT_DEC":33.9137085,"PRIM_LONG_DEC":-98.4933873},{"FEATURE_ID":1335095,"PLACE_NAME":"Edinburg - TX","STATE_ALPHA":"TX","FEATURE_NAME":"Edinburg","PRIM_LAT_DEC":26.3017374,"PRIM_LONG_DEC":-98.1633433},{"FEATURE_ID":1375953,"PLACE_NAME":"San Angelo - TX","STATE_ALPHA":"TX","FEATURE_NAME":"San Angelo","PRIM_LAT_DEC":31.4637723,"PRIM_LONG_DEC":-100.4370375},{"FEATURE_ID":1333238,"PLACE_NAME":"Conroe - TX","STATE_ALPHA":"TX","FEATURE_NAME":"Conroe","PRIM_LAT_DEC":30.3118769,"PRIM_LONG_DEC":-95.4560512},{"FEATURE_ID":1342440,"PLACE_NAME":"New Braunfels - TX","STATE_ALPHA":"TX","FEATURE_NAME":"New Braunfels","PRIM_LAT_DEC":29.7030024,"PRIM_LONG_DEC":-98.1244531},{"FEATURE_ID":1353099,"PLACE_NAME":"Bryan - TX","STATE_ALPHA":"TX","FEATURE_NAME":"Bryan","PRIM_LAT_DEC":30.6743643,"PRIM_LONG_DEC":-96.3699632},{"FEATURE_ID":1378062,"PLACE_NAME":"Bryan - TX","STATE_ALPHA":"TX","FEATURE_NAME":"Bryan","PRIM_LAT_DEC":33.0987328,"PRIM_LONG_DEC":-97.4183544},{"FEATURE_ID":1341738,"PLACE_NAME":"Mission - TX","STATE_ALPHA":"TX","FEATURE_NAME":"Mission","PRIM_LAT_DEC":26.2159066,"PRIM_LONG_DEC":-98.3252932},{"FEATURE_ID":1374716,"PLACE_NAME":"Longview - TX","STATE_ALPHA":"TX","FEATURE_NAME":"Longview","PRIM_LAT_DEC":32.5007038,"PRIM_LONG_DEC":-94.7404891},{"FEATURE_ID":1357960,"PLACE_NAME":"Georgetown - TX","STATE_ALPHA":"TX","FEATURE_NAME":"Georgetown","PRIM_LAT_DEC":30.6326942,"PRIM_LONG_DEC":-97.6772311},{"FEATURE_ID":1354140,"PLACE_NAME":"Cedar Park - TX","STATE_ALPHA":"TX","FEATURE_NAME":"Cedar Park","PRIM_LAT_DEC":30.505198,"PRIM_LONG_DEC":-97.8202888},{"FEATURE_ID":1343930,"PLACE_NAME":"Pharr - TX","STATE_ALPHA":"TX","FEATURE_NAME":"Pharr","PRIM_LAT_DEC":26.1947962,"PRIM_LONG_DEC":-98.1836216},{"FEATURE_ID":1369696,"PLACE_NAME":"Temple - TX","STATE_ALPHA":"TX","FEATURE_NAME":"Temple","PRIM_LAT_DEC":31.0982344,"PRIM_LONG_DEC":-97.342782},{"FEATURE_ID":1380966,"PLACE_NAME":"Baytown - TX","STATE_ALPHA":"TX","FEATURE_NAME":"Baytown","PRIM_LAT_DEC":29.7355047,"PRIM_LONG_DEC":-94.9774274},{"FEATURE_ID":1374972,"PLACE_NAME":"Missouri City - TX","STATE_ALPHA":"TX","FEATURE_NAME":"Missouri City","PRIM_LAT_DEC":29.6185669,"PRIM_LONG_DEC":-95.5377215},{"FEATURE_ID":1340898,"PLACE_NAME":"Mansfield - TX","STATE_ALPHA":"TX","FEATURE_NAME":"Mansfield","PRIM_LAT_DEC":32.5631924,"PRIM_LONG_DEC":-97.1416768},{"FEATURE_ID":1375190,"PLACE_NAME":"North Richland Hills - TX","STATE_ALPHA":"TX","FEATURE_NAME":"North Richland Hills","PRIM_LAT_DEC":32.8342952,"PRIM_LONG_DEC":-97.2289029},{"FEATURE_ID":1345719,"PLACE_NAME":"Rowlett - TX","STATE_ALPHA":"TX","FEATURE_NAME":"Rowlett","PRIM_LAT_DEC":32.9029017,"PRIM_LONG_DEC":-96.56388},{"FEATURE_ID":1370631,"PLACE_NAME":"Victoria - TX","STATE_ALPHA":"TX","FEATURE_NAME":"Victoria","PRIM_LAT_DEC":28.8052674,"PRIM_LONG_DEC":-97.0035982},{"FEATURE_ID":1380723,"PLACE_NAME":"Victoria - TX","STATE_ALPHA":"TX","FEATURE_NAME":"Victoria","PRIM_LAT_DEC":31.5979455,"PRIM_LONG_DEC":-96.776656},{"FEATURE_ID":1365131,"PLACE_NAME":"Pflugerville - TX","STATE_ALPHA":"TX","FEATURE_NAME":"Pflugerville","PRIM_LAT_DEC":30.4393696,"PRIM_LONG_DEC":-97.6200043},{"FEATURE_ID":1337354,"PLACE_NAME":"Harlingen - TX","STATE_ALPHA":"TX","FEATURE_NAME":"Harlingen","PRIM_LAT_DEC":26.1906306,"PRIM_LONG_DEC":-97.6961026},{"FEATURE_ID":1375971,"PLACE_NAME":"San Marcos - TX","STATE_ALPHA":"TX","FEATURE_NAME":"San Marcos","PRIM_LAT_DEC":29.8832749,"PRIM_LONG_DEC":-97.9413941},{"FEATURE_ID":1361023,"PLACE_NAME":"Leander - TX","STATE_ALPHA":"TX","FEATURE_NAME":"Leander","PRIM_LAT_DEC":30.5788055,"PRIM_LONG_DEC":-97.8530686},{"FEATURE_ID":1335538,"PLACE_NAME":"Euless - TX","STATE_ALPHA":"TX","FEATURE_NAME":"Euless","PRIM_LAT_DEC":32.8370727,"PRIM_LONG_DEC":-97.0819541},{"FEATURE_ID":1336834,"PLACE_NAME":"Grapevine - TX","STATE_ALPHA":"TX","FEATURE_NAME":"Grapevine","PRIM_LAT_DEC":32.9342919,"PRIM_LONG_DEC":-97.0780654},{"FEATURE_ID":1384151,"PLACE_NAME":"Port Arthur - TX","STATE_ALPHA":"TX","FEATURE_NAME":"Port Arthur","PRIM_LAT_DEC":29.8988258,"PRIM_LONG_DEC":-93.9287815},{"FEATURE_ID":1340088,"PLACE_NAME":"Little Elm - TX","STATE_ALPHA":"TX","FEATURE_NAME":"Little Elm","PRIM_LAT_DEC":33.1626194,"PRIM_LONG_DEC":-96.9375051},{"FEATURE_ID":1380090,"PLACE_NAME":"Little Elm - TX","STATE_ALPHA":"TX","FEATURE_NAME":"Little Elm","PRIM_LAT_DEC":31.4390618,"PRIM_LONG_DEC":-96.7072065},{"FEATURE_ID":1350621,"PLACE_NAME":"Wylie - TX","STATE_ALPHA":"TX","FEATURE_NAME":"Wylie","PRIM_LAT_DEC":33.0151201,"PRIM_LONG_DEC":-96.5388789},{"FEATURE_ID":1350622,"PLACE_NAME":"Wylie - TX","STATE_ALPHA":"TX","FEATURE_NAME":"Wylie","PRIM_LAT_DEC":32.3729052,"PRIM_LONG_DEC":-99.7753665},{"FEATURE_ID":1373357,"PLACE_NAME":"DeSoto - TX","STATE_ALPHA":"TX","FEATURE_NAME":"DeSoto","PRIM_LAT_DEC":32.5898577,"PRIM_LONG_DEC":-96.8569451},{"FEATURE_ID":1377745,"PLACE_NAME":"Galveston - TX","STATE_ALPHA":"TX","FEATURE_NAME":"Galveston","PRIM_LAT_DEC":29.3013889,"PRIM_LONG_DEC":-94.7977778},{"FEATURE_ID":1376420,"PLACE_NAME":"Texas City - TX","STATE_ALPHA":"TX","FEATURE_NAME":"Texas City","PRIM_LAT_DEC":29.383845,"PRIM_LONG_DEC":-94.9027002},{"FEATURE_ID":44784,"PLACE_NAME":"Phoenix - AZ","STATE_ALPHA":"AZ","FEATURE_NAME":"Phoenix","PRIM_LAT_DEC":33.4483771,"PRIM_LONG_DEC":-112.0740373},{"FEATURE_ID":43534,"PLACE_NAME":"Tucson - AZ","STATE_ALPHA":"AZ","FEATURE_NAME":"Tucson","PRIM_LAT_DEC":32.2217429,"PRIM_LONG_DEC":-110.926479},{"FEATURE_ID":7890,"PLACE_NAME":"Mesa - AZ","STATE_ALPHA":"AZ","FEATURE_NAME":"Mesa","PRIM_LAT_DEC":33.4222685,"PRIM_LONG_DEC":-111.8226402},{"FEATURE_ID":2748,"PLACE_NAME":"Chandler - AZ","STATE_ALPHA":"AZ","FEATURE_NAME":"Chandler","PRIM_LAT_DEC":33.3061605,"PRIM_LONG_DEC":-111.8412502},{"FEATURE_ID":11029,"PLACE_NAME":"Scottsdale - AZ","STATE_ALPHA":"AZ","FEATURE_NAME":"Scottsdale","PRIM_LAT_DEC":33.5092103,"PRIM_LONG_DEC":-111.8990327},{"FEATURE_ID":5060,"PLACE_NAME":"Glendale - AZ","STATE_ALPHA":"AZ","FEATURE_NAME":"Glendale","PRIM_LAT_DEC":33.5386523,"PRIM_LONG_DEC":-112.1859866},{"FEATURE_ID":12233,"PLACE_NAME":"Tempe - AZ","STATE_ALPHA":"AZ","FEATURE_NAME":"Tempe","PRIM_LAT_DEC":33.414768,"PRIM_LONG_DEC":-111.9093095},{"FEATURE_ID":9318,"PLACE_NAME":"Peoria - AZ","STATE_ALPHA":"AZ","FEATURE_NAME":"Peoria","PRIM_LAT_DEC":33.5805955,"PRIM_LONG_DEC":-112.2373779},{"FEATURE_ID":12009,"PLACE_NAME":"Surprise - AZ","STATE_ALPHA":"AZ","FEATURE_NAME":"Surprise","PRIM_LAT_DEC":33.6305938,"PRIM_LONG_DEC":-112.333216},{"FEATURE_ID":14111,"PLACE_NAME":"Yuma - AZ","STATE_ALPHA":"AZ","FEATURE_NAME":"Yuma","PRIM_LAT_DEC":32.7253249,"PRIM_LONG_DEC":-114.624397},{"FEATURE_ID":895,"PLACE_NAME":"Avondale - AZ","STATE_ALPHA":"AZ","FEATURE_NAME":"Avondale","PRIM_LAT_DEC":33.4355977,"PRIM_LONG_DEC":-112.3496021},{"FEATURE_ID":5172,"PLACE_NAME":"Goodyear - AZ","STATE_ALPHA":"AZ","FEATURE_NAME":"Goodyear","PRIM_LAT_DEC":33.4353199,"PRIM_LONG_DEC":-112.3582135},{"FEATURE_ID":2081,"PLACE_NAME":"Buckeye - AZ","STATE_ALPHA":"AZ","FEATURE_NAME":"Buckeye","PRIM_LAT_DEC":33.3703197,"PRIM_LONG_DEC":-112.5837766},{"FEATURE_ID":29046,"PLACE_NAME":"Flagstaff - AZ","STATE_ALPHA":"AZ","FEATURE_NAME":"Flagstaff","PRIM_LAT_DEC":35.1980671,"PRIM_LONG_DEC":-111.6512725},{"FEATURE_ID":24269,"PLACE_NAME":"Casa Grande - AZ","STATE_ALPHA":"AZ","FEATURE_NAME":"Casa Grande","PRIM_LAT_DEC":32.8795022,"PRIM_LONG_DEC":-111.7573521},{"FEATURE_ID":6840,"PLACE_NAME":"Lake Havasu City - AZ","STATE_ALPHA":"AZ","FEATURE_NAME":"Lake Havasu City","PRIM_LAT_DEC":34.483901,"PRIM_LONG_DEC":-114.3224548},{"FEATURE_ID":7694,"PLACE_NAME":"Maricopa - AZ","STATE_ALPHA":"AZ","FEATURE_NAME":"Maricopa","PRIM_LAT_DEC":33.0581063,"PRIM_LONG_DEC":-112.0476423},{"FEATURE_ID":1209052,"PLACE_NAME":"Philadelphia - PA","STATE_ALPHA":"PA","FEATURE_NAME":"Philadelphia","PRIM_LAT_DEC":39.952335,"PRIM_LONG_DEC":-75.163789},{"FEATURE_ID":1213644,"PLACE_NAME":"Pittsburgh - PA","STATE_ALPHA":"PA","FEATURE_NAME":"Pittsburgh","PRIM_LAT_DEC":40.4406248,"PRIM_LONG_DEC":-79.9958864},{"FEATURE_ID":1202899,"PLACE_NAME":"Allentown - PA","STATE_ALPHA":"PA","FEATURE_NAME":"Allentown","PRIM_LAT_DEC":40.4275693,"PRIM_LONG_DEC":-79.9939418},{"FEATURE_ID":1213700,"PLACE_NAME":"Allentown - PA","STATE_ALPHA":"PA","FEATURE_NAME":"Allentown","PRIM_LAT_DEC":40.6084305,"PRIM_LONG_DEC":-75.4901833},{"FEATURE_ID":1174305,"PLACE_NAME":"Erie - PA","STATE_ALPHA":"PA","FEATURE_NAME":"Erie","PRIM_LAT_DEC":42.1292241,"PRIM_LONG_DEC":-80.085059},{"FEATURE_ID":1184733,"PLACE_NAME":"Reading - PA","STATE_ALPHA":"PA","FEATURE_NAME":"Reading","PRIM_LAT_DEC":40.3356483,"PRIM_LONG_DEC":-75.9268747},{"FEATURE_ID":1213652,"PLACE_NAME":"Scranton - PA","STATE_ALPHA":"PA","FEATURE_NAME":"Scranton","PRIM_LAT_DEC":41.408969,"PRIM_LONG_DEC":-75.6624122},{"FEATURE_ID":1169425,"PLACE_NAME":"Bethlehem - PA","STATE_ALPHA":"PA","FEATURE_NAME":"Bethlehem","PRIM_LAT_DEC":40.8617302,"PRIM_LONG_DEC":-78.7303073},{"FEATURE_ID":1169426,"PLACE_NAME":"Bethlehem - PA","STATE_ALPHA":"PA","FEATURE_NAME":"Bethlehem","PRIM_LAT_DEC":40.6259316,"PRIM_LONG_DEC":-75.3704579},{"FEATURE_ID":1178842,"PLACE_NAME":"Lancaster - PA","STATE_ALPHA":"PA","FEATURE_NAME":"Lancaster","PRIM_LAT_DEC":40.0378755,"PRIM_LONG_DEC":-76.3055144},{"FEATURE_ID":295003,"PLACE_NAME":"Jacksonville - FL","STATE_ALPHA":"FL","FEATURE_NAME":"Jacksonville","PRIM_LAT_DEC":30.3321838,"PRIM_LONG_DEC":-81.655651},{"FEATURE_ID":295004,"PLACE_NAME":"Miami - FL","STATE_ALPHA":"FL","FEATURE_NAME":"Miami","PRIM_LAT_DEC":25.7742658,"PRIM_LONG_DEC":-80.1936589},{"FEATURE_ID":292005,"PLACE_NAME":"Tampa - FL","STATE_ALPHA":"FL","FEATURE_NAME":"Tampa","PRIM_LAT_DEC":27.9475216,"PRIM_LONG_DEC":-82.4584279},{"FEATURE_ID":288240,"PLACE_NAME":"Orlando - FL","STATE_ALPHA":"FL","FEATURE_NAME":"Orlando","PRIM_LAT_DEC":28.5383355,"PRIM_LONG_DEC":-81.3792365},{"FEATURE_ID":305059,"PLACE_NAME":"Hialeah - FL","STATE_ALPHA":"FL","FEATURE_NAME":"Hialeah","PRIM_LAT_DEC":25.8575963,"PRIM_LONG_DEC":-80.2781057},{"FEATURE_ID":308416,"PLACE_NAME":"Tallahassee - FL","STATE_ALPHA":"FL","FEATURE_NAME":"Tallahassee","PRIM_LAT_DEC":30.4382559,"PRIM_LONG_DEC":-84.2807329},{"FEATURE_ID":279997,"PLACE_NAME":"Cape Coral - FL","STATE_ALPHA":"FL","FEATURE_NAME":"Cape Coral","PRIM_LAT_DEC":26.5628537,"PRIM_LONG_DEC":-81.9495331},{"FEATURE_ID":282693,"PLACE_NAME":"Fort Lauderdale - FL","STATE_ALPHA":"FL","FEATURE_NAME":"Fort Lauderdale","PRIM_LAT_DEC":26.1223084,"PRIM_LONG_DEC":-80.1433786},{"FEATURE_ID":288686,"PLACE_NAME":"Pembroke Pines - FL","STATE_ALPHA":"FL","FEATURE_NAME":"Pembroke Pines","PRIM_LAT_DEC":26.0031465,"PRIM_LONG_DEC":-80.223937},{"FEATURE_ID":284176,"PLACE_NAME":"Hollywood - FL","STATE_ALPHA":"FL","FEATURE_NAME":"Hollywood","PRIM_LAT_DEC":26.0112014,"PRIM_LONG_DEC":-80.1494901},{"FEATURE_ID":286974,"PLACE_NAME":"Miramar - FL","STATE_ALPHA":"FL","FEATURE_NAME":"Miramar","PRIM_LAT_DEC":25.9873137,"PRIM_LONG_DEC":-80.2322706},{"FEATURE_ID":282874,"PLACE_NAME":"Gainesville - FL","STATE_ALPHA":"FL","FEATURE_NAME":"Gainesville","PRIM_LAT_DEC":29.6516344,"PRIM_LONG_DEC":-82.3248262},{"FEATURE_ID":307614,"PLACE_NAME":"Coral Springs - FL","STATE_ALPHA":"FL","FEATURE_NAME":"Coral Springs","PRIM_LAT_DEC":26.271192,"PRIM_LONG_DEC":-80.2706044},{"FEATURE_ID":280543,"PLACE_NAME":"Clearwater - FL","STATE_ALPHA":"FL","FEATURE_NAME":"Clearwater","PRIM_LAT_DEC":27.9658533,"PRIM_LONG_DEC":-82.8001026},{"FEATURE_ID":288389,"PLACE_NAME":"Palm Bay - FL","STATE_ALPHA":"FL","FEATURE_NAME":"Palm Bay","PRIM_LAT_DEC":28.0344621,"PRIM_LONG_DEC":-80.5886646},{"FEATURE_ID":2484547,"PLACE_NAME":"Palm Bay - FL","STATE_ALPHA":"FL","FEATURE_NAME":"Palm Bay","PRIM_LAT_DEC":28.0,"PRIM_LONG_DEC":-82.6094},{"FEATURE_ID":294459,"PLACE_NAME":"Lakeland - FL","STATE_ALPHA":"FL","FEATURE_NAME":"Lakeland","PRIM_LAT_DEC":28.0394654,"PRIM_LONG_DEC":-81.9498042},{"FEATURE_ID":289162,"PLACE_NAME":"Pompano Beach - FL","STATE_ALPHA":"FL","FEATURE_NAME":"Pompano Beach","PRIM_LAT_DEC":26.2378597,"PRIM_LONG_DEC":-80.1247667},{"FEATURE_ID":293097,"PLACE_NAME":"West Palm Beach - FL","STATE_ALPHA":"FL","FEATURE_NAME":"West Palm Beach","PRIM_LAT_DEC":26.7153425,"PRIM_LONG_DEC":-80.0533746},{"FEATURE_ID":286754,"PLACE_NAME":"Miami Gardens - FL","STATE_ALPHA":"FL","FEATURE_NAME":"Miami Gardens","PRIM_LAT_DEC":25.9798139,"PRIM_LONG_DEC":-80.2025475},{"FEATURE_ID":1989951,"PLACE_NAME":"Miami Gardens - FL","STATE_ALPHA":"FL","FEATURE_NAME":"Miami Gardens","PRIM_LAT_DEC":25.9420377,"PRIM_LONG_DEC":-80.2456045},{"FEATURE_ID":279123,"PLACE_NAME":"Boca Raton - FL","STATE_ALPHA":"FL","FEATURE_NAME":"Boca Raton","PRIM_LAT_DEC":26.3586885,"PRIM_LONG_DEC":-80.0830984},{"FEATURE_ID":291850,"PLACE_NAME":"Sunrise - FL","STATE_ALPHA":"FL","FEATURE_NAME":"Sunrise","PRIM_LAT_DEC":26.1339746,"PRIM_LONG_DEC":-80.1130998},{"FEATURE_ID":300867,"PLACE_NAME":"Sunrise - FL","STATE_ALPHA":"FL","FEATURE_NAME":"Sunrise","PRIM_LAT_DEC":27.2594935,"PRIM_LONG_DEC":-82.4428733},{"FEATURE_ID":2117755,"PLACE_NAME":"Sunrise - FL","STATE_ALPHA":"FL","FEATURE_NAME":"Sunrise","PRIM_LAT_DEC":26.1672222,"PRIM_LONG_DEC":-80.295},{"FEATURE_ID":2485115,"PLACE_NAME":"Sunrise - FL","STATE_ALPHA":"FL","FEATURE_NAME":"Sunrise","PRIM_LAT_DEC":27.9757,"PRIM_LONG_DEC":-82.4956},{"FEATURE_ID":289024,"PLACE_NAME":"Plantation - FL","STATE_ALPHA":"FL","FEATURE_NAME":"Plantation","PRIM_LAT_DEC":26.1275862,"PRIM_LONG_DEC":-80.2331036},{"FEATURE_ID":299990,"PLACE_NAME":"Plantation - FL","STATE_ALPHA":"FL","FEATURE_NAME":"Plantation","PRIM_LAT_DEC":24.9762421,"PRIM_LONG_DEC":-80.5522836},{"FEATURE_ID":1867189,"PLACE_NAME":"Plantation - FL","STATE_ALPHA":"FL","FEATURE_NAME":"Plantation","PRIM_LAT_DEC":27.0681121,"PRIM_LONG_DEC":-82.3728728},{"FEATURE_ID":281490,"PLACE_NAME":"Deltona - FL","STATE_ALPHA":"FL","FEATURE_NAME":"Deltona","PRIM_LAT_DEC":28.9005446,"PRIM_LONG_DEC":-81.2636738},{"FEATURE_ID":295049,"PLACE_NAME":"Palm Coast - FL","STATE_ALPHA":"FL","FEATURE_NAME":"Palm Coast","PRIM_LAT_DEC":29.5849736,"PRIM_LONG_DEC":-81.2078411},{"FEATURE_ID":286750,"PLACE_NAME":"Miami Beach - FL","STATE_ALPHA":"FL","FEATURE_NAME":"Miami Beach","PRIM_LAT_DEC":25.790654,"PRIM_LONG_DEC":-80.1300455},{"FEATURE_ID":282700,"PLACE_NAME":"Fort Myers - FL","STATE_ALPHA":"FL","FEATURE_NAME":"Fort Myers","PRIM_LAT_DEC":26.640628,"PRIM_LONG_DEC":-81.8723084},{"FEATURE_ID":285346,"PLACE_NAME":"Largo - FL","STATE_ALPHA":"FL","FEATURE_NAME":"Largo","PRIM_LAT_DEC":27.9094665,"PRIM_LONG_DEC":-82.7873244},{"FEATURE_ID":294589,"PLACE_NAME":"Melbourne - FL","STATE_ALPHA":"FL","FEATURE_NAME":"Melbourne","PRIM_LAT_DEC":28.0836269,"PRIM_LONG_DEC":-80.6081089},{"FEATURE_ID":281460,"PLACE_NAME":"Deerfield Beach - FL","STATE_ALPHA":"FL","FEATURE_NAME":"Deerfield Beach","PRIM_LAT_DEC":26.3184123,"PRIM_LONG_DEC":-80.0997657},{"FEATURE_ID":279303,"PLACE_NAME":"Boynton Beach - FL","STATE_ALPHA":"FL","FEATURE_NAME":"Boynton Beach","PRIM_LAT_DEC":26.5253491,"PRIM_LONG_DEC":-80.0664309},{"FEATURE_ID":285145,"PLACE_NAME":"Kissimmee - FL","STATE_ALPHA":"FL","FEATURE_NAME":"Kissimmee","PRIM_LAT_DEC":28.2919557,"PRIM_LONG_DEC":-81.407571},{"FEATURE_ID":285368,"PLACE_NAME":"Lauderhill - FL","STATE_ALPHA":"FL","FEATURE_NAME":"Lauderhill","PRIM_LAT_DEC":26.1403635,"PRIM_LONG_DEC":-80.2133808},{"FEATURE_ID":1761599,"PLACE_NAME":"Weston - FL","STATE_ALPHA":"FL","FEATURE_NAME":"Weston","PRIM_LAT_DEC":26.1003654,"PRIM_LONG_DEC":-80.3997748},{"FEATURE_ID":294334,"PLACE_NAME":"North Port - FL","STATE_ALPHA":"FL","FEATURE_NAME":"North Port","PRIM_LAT_DEC":27.044224,"PRIM_LONG_DEC":-82.2359254},{"FEATURE_ID":284214,"PLACE_NAME":"Homestead - FL","STATE_ALPHA":"FL","FEATURE_NAME":"Homestead","PRIM_LAT_DEC":25.4687224,"PRIM_LONG_DEC":-80.4775569},{"FEATURE_ID":2483556,"PLACE_NAME":"Homestead - FL","STATE_ALPHA":"FL","FEATURE_NAME":"Homestead","PRIM_LAT_DEC":27.9756,"PRIM_LONG_DEC":-82.4489},{"FEATURE_ID":281485,"PLACE_NAME":"Delray Beach - FL","STATE_ALPHA":"FL","FEATURE_NAME":"Delray Beach","PRIM_LAT_DEC":26.4614625,"PRIM_LONG_DEC":-80.0728201},{"FEATURE_ID":281353,"PLACE_NAME":"Daytona Beach - FL","STATE_ALPHA":"FL","FEATURE_NAME":"Daytona Beach","PRIM_LAT_DEC":29.2108147,"PRIM_LONG_DEC":-81.0228331},{"FEATURE_ID":300337,"PLACE_NAME":"Tamarac - FL","STATE_ALPHA":"FL","FEATURE_NAME":"Tamarac","PRIM_LAT_DEC":26.2128609,"PRIM_LONG_DEC":-80.2497707},{"FEATURE_ID":1867137,"PLACE_NAME":"Doral - FL","STATE_ALPHA":"FL","FEATURE_NAME":"Doral","PRIM_LAT_DEC":25.8195424,"PRIM_LONG_DEC":-80.3553302},{"FEATURE_ID":295559,"PLACE_NAME":"Port Orange - FL","STATE_ALPHA":"FL","FEATURE_NAME":"Port Orange","PRIM_LAT_DEC":29.1383165,"PRIM_LONG_DEC":-80.9956105},{"FEATURE_ID":287837,"PLACE_NAME":"North Miami - FL","STATE_ALPHA":"FL","FEATURE_NAME":"North Miami","PRIM_LAT_DEC":25.8900949,"PRIM_LONG_DEC":-80.1867138},{"FEATURE_ID":290631,"PLACE_NAME":"Sanford - FL","STATE_ALPHA":"FL","FEATURE_NAME":"Sanford","PRIM_LAT_DEC":28.8005484,"PRIM_LONG_DEC":-81.2731203},{"FEATURE_ID":300334,"PLACE_NAME":"Coconut Creek - FL","STATE_ALPHA":"FL","FEATURE_NAME":"Coconut Creek","PRIM_LAT_DEC":26.2517482,"PRIM_LONG_DEC":-80.1789351},{"FEATURE_ID":288030,"PLACE_NAME":"Ocala - FL","STATE_ALPHA":"FL","FEATURE_NAME":"Ocala","PRIM_LAT_DEC":29.1871986,"PRIM_LONG_DEC":-82.1400923},{"FEATURE_ID":279207,"PLACE_NAME":"Bonita Springs - FL","STATE_ALPHA":"FL","FEATURE_NAME":"Bonita Springs","PRIM_LAT_DEC":26.339806,"PRIM_LONG_DEC":-81.7786972},{"FEATURE_ID":279311,"PLACE_NAME":"Bradenton - FL","STATE_ALPHA":"FL","FEATURE_NAME":"Bradenton","PRIM_LAT_DEC":27.4989278,"PRIM_LONG_DEC":-82.5748194},{"FEATURE_ID":286413,"PLACE_NAME":"Margate - FL","STATE_ALPHA":"FL","FEATURE_NAME":"Margate","PRIM_LAT_DEC":26.2445263,"PRIM_LONG_DEC":-80.206436},{"FEATURE_ID":290675,"PLACE_NAME":"Sarasota - FL","STATE_ALPHA":"FL","FEATURE_NAME":"Sarasota","PRIM_LAT_DEC":27.3364347,"PRIM_LONG_DEC":-82.5306527},{"FEATURE_ID":302681,"PLACE_NAME":"Palm Beach Gardens - FL","STATE_ALPHA":"FL","FEATURE_NAME":"Palm Beach Gardens","PRIM_LAT_DEC":26.8233946,"PRIM_LONG_DEC":-80.1386547},{"FEATURE_ID":288936,"PLACE_NAME":"Pinellas Park - FL","STATE_ALPHA":"FL","FEATURE_NAME":"Pinellas Park","PRIM_LAT_DEC":27.8428025,"PRIM_LONG_DEC":-82.6995444},{"FEATURE_ID":294327,"PLACE_NAME":"Apopka - FL","STATE_ALPHA":"FL","FEATURE_NAME":"Apopka","PRIM_LAT_DEC":28.6805529,"PRIM_LONG_DEC":-81.5095165},{"FEATURE_ID":294117,"PLACE_NAME":"Pensacola - FL","STATE_ALPHA":"FL","FEATURE_NAME":"Pensacola","PRIM_LAT_DEC":30.421309,"PRIM_LONG_DEC":-87.2169149},{"FEATURE_ID":280801,"PLACE_NAME":"Coral Gables - FL","STATE_ALPHA":"FL","FEATURE_NAME":"Coral Gables","PRIM_LAT_DEC":25.72149,"PRIM_LONG_DEC":-80.2683838},{"FEATURE_ID":1080996,"PLACE_NAME":"Columbus - OH","STATE_ALPHA":"OH","FEATURE_NAME":"Columbus","PRIM_LAT_DEC":39.9611755,"PRIM_LONG_DEC":-82.9987942},{"FEATURE_ID":1066654,"PLACE_NAME":"Cleveland - OH","STATE_ALPHA":"OH","FEATURE_NAME":"Cleveland","PRIM_LAT_DEC":41.4994954,"PRIM_LONG_DEC":-81.6954088},{"FEATURE_ID":1066650,"PLACE_NAME":"Cincinnati - OH","STATE_ALPHA":"OH","FEATURE_NAME":"Cincinnati","PRIM_LAT_DEC":39.1034569,"PRIM_LONG_DEC":-84.5152726},{"FEATURE_ID":1067015,"PLACE_NAME":"Toledo - OH","STATE_ALPHA":"OH","FEATURE_NAME":"Toledo","PRIM_LAT_DEC":41.6639383,"PRIM_LONG_DEC":-83.555212},{"FEATURE_ID":1064305,"PLACE_NAME":"Akron - OH","STATE_ALPHA":"OH","FEATURE_NAME":"Akron","PRIM_LAT_DEC":41.0814447,"PRIM_LONG_DEC":-81.5190053},{"FEATURE_ID":1064514,"PLACE_NAME":"Dayton - OH","STATE_ALPHA":"OH","FEATURE_NAME":"Dayton","PRIM_LAT_DEC":39.7589478,"PRIM_LONG_DEC":-84.1916069},{"FEATURE_ID":1049063,"PLACE_NAME":"Parma - OH","STATE_ALPHA":"OH","FEATURE_NAME":"Parma","PRIM_LAT_DEC":41.4047742,"PRIM_LONG_DEC":-81.7229086},{"FEATURE_ID":1048580,"PLACE_NAME":"Canton - OH","STATE_ALPHA":"OH","FEATURE_NAME":"Canton","PRIM_LAT_DEC":40.7989473,"PRIM_LONG_DEC":-81.378447},{"FEATURE_ID":1058156,"PLACE_NAME":"Youngstown - OH","STATE_ALPHA":"OH","FEATURE_NAME":"Youngstown","PRIM_LAT_DEC":41.0997803,"PRIM_LONG_DEC":-80.6495194},{"FEATURE_ID":1077529,"PLACE_NAME":"Lorain - OH","STATE_ALPHA":"OH","FEATURE_NAME":"Lorain","PRIM_LAT_DEC":41.452819,"PRIM_LONG_DEC":-82.1823746},{"FEATURE_ID":1064784,"PLACE_NAME":"Hamilton - OH","STATE_ALPHA":"OH","FEATURE_NAME":"Hamilton","PRIM_LAT_DEC":39.3995008,"PRIM_LONG_DEC":-84.5613355},{"FEATURE_ID":1075987,"PLACE_NAME":"Hamilton - OH","STATE_ALPHA":"OH","FEATURE_NAME":"Hamilton","PRIM_LAT_DEC":39.7650722,"PRIM_LONG_DEC":-81.2412235},{"FEATURE_ID":1065370,"PLACE_NAME":"Springfield - OH","STATE_ALPHA":"OH","FEATURE_NAME":"Springfield","PRIM_LAT_DEC":39.9242266,"PRIM_LONG_DEC":-83.8088172},{"FEATURE_ID":1048887,"PLACE_NAME":"Kettering - OH","STATE_ALPHA":"OH","FEATURE_NAME":"Kettering","PRIM_LAT_DEC":39.6895036,"PRIM_LONG_DEC":-84.1688274},{"FEATURE_ID":1040177,"PLACE_NAME":"Elyria - OH","STATE_ALPHA":"OH","FEATURE_NAME":"Elyria","PRIM_LAT_DEC":41.3683798,"PRIM_LONG_DEC":-82.1076486},{"FEATURE_ID":1065144,"PLACE_NAME":"Newark - OH","STATE_ALPHA":"OH","FEATURE_NAME":"Newark","PRIM_LAT_DEC":40.0581205,"PRIM_LONG_DEC":-82.4012643},{"FEATURE_ID":1064966,"PLACE_NAME":"Lakewood - OH","STATE_ALPHA":"OH","FEATURE_NAME":"Lakewood","PRIM_LAT_DEC":41.4819932,"PRIM_LONG_DEC":-81.7981908},{"FEATURE_ID":2771682,"PLACE_NAME":"Lakewood - OH","STATE_ALPHA":"OH","FEATURE_NAME":"Lakewood","PRIM_LAT_DEC":40.016498,"PRIM_LONG_DEC":-83.178718},{"FEATURE_ID":1019610,"PLACE_NAME":"Charlotte - NC","STATE_ALPHA":"NC","FEATURE_NAME":"Charlotte","PRIM_LAT_DEC":35.2270869,"PRIM_LONG_DEC":-80.8431268},{"FEATURE_ID":1024242,"PLACE_NAME":"Raleigh - NC","STATE_ALPHA":"NC","FEATURE_NAME":"Raleigh","PRIM_LAT_DEC":35.772096,"PRIM_LONG_DEC":-78.6386145},{"FEATURE_ID":1020557,"PLACE_NAME":"Greensboro - NC","STATE_ALPHA":"NC","FEATURE_NAME":"Greensboro","PRIM_LAT_DEC":36.0726355,"PRIM_LONG_DEC":-79.7919754},{"FEATURE_ID":1020059,"PLACE_NAME":"Durham - NC","STATE_ALPHA":"NC","FEATURE_NAME":"Durham","PRIM_LAT_DEC":35.9940329,"PRIM_LONG_DEC":-78.898619},{"FEATURE_ID":997498,"PLACE_NAME":"Winston-Salem - NC","STATE_ALPHA":"NC","FEATURE_NAME":"Winston-Salem","PRIM_LAT_DEC":36.0998596,"PRIM_LONG_DEC":-80.244216},{"FEATURE_ID":1020226,"PLACE_NAME":"Fayetteville - NC","STATE_ALPHA":"NC","FEATURE_NAME":"Fayetteville","PRIM_LAT_DEC":35.0526641,"PRIM_LONG_DEC":-78.8783585},{"FEATURE_ID":1023269,"PLACE_NAME":"Wilmington - NC","STATE_ALPHA":"NC","FEATURE_NAME":"Wilmington","PRIM_LAT_DEC":34.2257256,"PRIM_LONG_DEC":-77.9447102},{"FEATURE_ID":986755,"PLACE_NAME":"High Point - NC","STATE_ALPHA":"NC","FEATURE_NAME":"High Point","PRIM_LAT_DEC":35.9556924,"PRIM_LONG_DEC":-80.0053176},{"FEATURE_ID":983422,"PLACE_NAME":"Concord - NC","STATE_ALPHA":"NC","FEATURE_NAME":"Concord","PRIM_LAT_DEC":34.8376684,"PRIM_LONG_DEC":-78.1161014},{"FEATURE_ID":983423,"PLACE_NAME":"Concord - NC","STATE_ALPHA":"NC","FEATURE_NAME":"Concord","PRIM_LAT_DEC":34.9829465,"PRIM_LONG_DEC":-78.4166696},{"FEATURE_ID":983424,"PLACE_NAME":"Concord - NC","STATE_ALPHA":"NC","FEATURE_NAME":"Concord","PRIM_LAT_DEC":35.4087517,"PRIM_LONG_DEC":-80.579511},{"FEATURE_ID":983425,"PLACE_NAME":"Concord - NC","STATE_ALPHA":"NC","FEATURE_NAME":"Concord","PRIM_LAT_DEC":36.4459737,"PRIM_LONG_DEC":-79.0664018},{"FEATURE_ID":1019750,"PLACE_NAME":"Concord - NC","STATE_ALPHA":"NC","FEATURE_NAME":"Concord","PRIM_LAT_DEC":35.8798359,"PRIM_LONG_DEC":-82.3226274},{"FEATURE_ID":1019751,"PLACE_NAME":"Concord - NC","STATE_ALPHA":"NC","FEATURE_NAME":"Concord","PRIM_LAT_DEC":35.3445673,"PRIM_LONG_DEC":-81.8209346},{"FEATURE_ID":1018640,"PLACE_NAME":"Greenville - NC","STATE_ALPHA":"NC","FEATURE_NAME":"Greenville","PRIM_LAT_DEC":35.2454198,"PRIM_LONG_DEC":-80.8425711},{"FEATURE_ID":1023721,"PLACE_NAME":"Greenville - NC","STATE_ALPHA":"NC","FEATURE_NAME":"Greenville","PRIM_LAT_DEC":35.612661,"PRIM_LONG_DEC":-77.3663538},{"FEATURE_ID":1018864,"PLACE_NAME":"Asheville - NC","STATE_ALPHA":"NC","FEATURE_NAME":"Asheville","PRIM_LAT_DEC":35.6009452,"PRIM_LONG_DEC":-82.554015},{"FEATURE_ID":985606,"PLACE_NAME":"Gastonia - NC","STATE_ALPHA":"NC","FEATURE_NAME":"Gastonia","PRIM_LAT_DEC":35.262082,"PRIM_LONG_DEC":-81.1873005},{"FEATURE_ID":987502,"PLACE_NAME":"Jacksonville - NC","STATE_ALPHA":"NC","FEATURE_NAME":"Jacksonville","PRIM_LAT_DEC":34.7540524,"PRIM_LONG_DEC":-77.4302415},{"FEATURE_ID":982279,"PLACE_NAME":"Burlington - NC","STATE_ALPHA":"NC","FEATURE_NAME":"Burlington","PRIM_LAT_DEC":36.0956918,"PRIM_LONG_DEC":-79.4377991},{"FEATURE_ID":1022368,"PLACE_NAME":"Rocky Mount - NC","STATE_ALPHA":"NC","FEATURE_NAME":"Rocky Mount","PRIM_LAT_DEC":35.9382103,"PRIM_LONG_DEC":-77.790534},{"FEATURE_ID":1021013,"PLACE_NAME":"Kannapolis - NC","STATE_ALPHA":"NC","FEATURE_NAME":"Kannapolis","PRIM_LAT_DEC":35.4873613,"PRIM_LONG_DEC":-80.6217341},{"FEATURE_ID":434689,"PLACE_NAME":"Fort Wayne - IN","STATE_ALPHA":"IN","FEATURE_NAME":"Fort Wayne","PRIM_LAT_DEC":41.1306041,"PRIM_LONG_DEC":-85.1288597},{"FEATURE_ID":434258,"PLACE_NAME":"Evansville - IN","STATE_ALPHA":"IN","FEATURE_NAME":"Evansville","PRIM_LAT_DEC":37.9747644,"PRIM_LONG_DEC":-87.5558482},{"FEATURE_ID":452796,"PLACE_NAME":"South Bend - IN","STATE_ALPHA":"IN","FEATURE_NAME":"South Bend","PRIM_LAT_DEC":41.6833813,"PRIM_LONG_DEC":-86.2500066},{"FEATURE_ID":432143,"PLACE_NAME":"Carmel - IN","STATE_ALPHA":"IN","FEATURE_NAME":"Carmel","PRIM_LAT_DEC":39.9783711,"PRIM_LONG_DEC":-86.1180435},{"FEATURE_ID":434526,"PLACE_NAME":"Fishers - IN","STATE_ALPHA":"IN","FEATURE_NAME":"Fishers","PRIM_LAT_DEC":39.9555928,"PRIM_LONG_DEC":-86.0138729},{"FEATURE_ID":431207,"PLACE_NAME":"Bloomington - IN","STATE_ALPHA":"IN","FEATURE_NAME":"Bloomington","PRIM_LAT_DEC":39.165325,"PRIM_LONG_DEC":-86.5263857},{"FEATURE_ID":435658,"PLACE_NAME":"Hammond - IN","STATE_ALPHA":"IN","FEATURE_NAME":"Hammond","PRIM_LAT_DEC":41.5833688,"PRIM_LONG_DEC":-87.5000412},{"FEATURE_ID":434979,"PLACE_NAME":"Gary - IN","STATE_ALPHA":"IN","FEATURE_NAME":"Gary","PRIM_LAT_DEC":41.5933696,"PRIM_LONG_DEC":-87.3464271},{"FEATURE_ID":437501,"PLACE_NAME":"Lafayette - IN","STATE_ALPHA":"IN","FEATURE_NAME":"Lafayette","PRIM_LAT_DEC":40.4167022,"PRIM_LONG_DEC":-86.8752869},{"FEATURE_ID":439878,"PLACE_NAME":"Muncie - IN","STATE_ALPHA":"IN","FEATURE_NAME":"Muncie","PRIM_LAT_DEC":40.1933767,"PRIM_LONG_DEC":-85.3863599},{"FEATURE_ID":440192,"PLACE_NAME":"Noblesville - IN","STATE_ALPHA":"IN","FEATURE_NAME":"Noblesville","PRIM_LAT_DEC":40.0455918,"PRIM_LONG_DEC":-86.0085955},{"FEATURE_ID":444648,"PLACE_NAME":"Terre Haute - IN","STATE_ALPHA":"IN","FEATURE_NAME":"Terre Haute","PRIM_LAT_DEC":39.4667034,"PRIM_LONG_DEC":-87.4139092},{"FEATURE_ID":435462,"PLACE_NAME":"Greenwood - IN","STATE_ALPHA":"IN","FEATURE_NAME":"Greenwood","PRIM_LAT_DEC":40.8444917,"PRIM_LONG_DEC":-85.1769148},{"FEATURE_ID":435463,"PLACE_NAME":"Greenwood - IN","STATE_ALPHA":"IN","FEATURE_NAME":"Greenwood","PRIM_LAT_DEC":41.5500501,"PRIM_LONG_DEC":-85.2327519},{"FEATURE_ID":435464,"PLACE_NAME":"Greenwood - IN","STATE_ALPHA":"IN","FEATURE_NAME":"Greenwood","PRIM_LAT_DEC":39.6136578,"PRIM_LONG_DEC":-86.1066526},{"FEATURE_ID":449057,"PLACE_NAME":"Greenwood - IN","STATE_ALPHA":"IN","FEATURE_NAME":"Greenwood","PRIM_LAT_DEC":39.8122703,"PRIM_LONG_DEC":-84.8880159},{"FEATURE_ID":437425,"PLACE_NAME":"Kokomo - IN","STATE_ALPHA":"IN","FEATURE_NAME":"Kokomo","PRIM_LAT_DEC":40.486427,"PRIM_LONG_DEC":-86.1336033},{"FEATURE_ID":430152,"PLACE_NAME":"Anderson - IN","STATE_ALPHA":"IN","FEATURE_NAME":"Anderson","PRIM_LAT_DEC":40.1053196,"PRIM_LONG_DEC":-85.6802541},{"FEATURE_ID":434079,"PLACE_NAME":"Elkhart - IN","STATE_ALPHA":"IN","FEATURE_NAME":"Elkhart","PRIM_LAT_DEC":41.6819935,"PRIM_LONG_DEC":-85.9766671},{"FEATURE_ID":445775,"PLACE_NAME":"West Lafayette - IN","STATE_ALPHA":"IN","FEATURE_NAME":"West Lafayette","PRIM_LAT_DEC":40.4258686,"PRIM_LONG_DEC":-86.9080655},{"FEATURE_ID":452691,"PLACE_NAME":"Mishawaka - IN","STATE_ALPHA":"IN","FEATURE_NAME":"Mishawaka","PRIM_LAT_DEC":41.6619927,"PRIM_LONG_DEC":-86.1586156},{"FEATURE_ID":1512650,"PLACE_NAME":"Seattle - WA","STATE_ALPHA":"WA","FEATURE_NAME":"Seattle","PRIM_LAT_DEC":47.6062095,"PRIM_LONG_DEC":-122.3320708},{"FEATURE_ID":1512683,"PLACE_NAME":"Spokane - WA","STATE_ALPHA":"WA","FEATURE_NAME":"Spokane","PRIM_LAT_DEC":47.6587803,"PRIM_LONG_DEC":-117.4260466},{"FEATURE_ID":1512713,"PLACE_NAME":"Tacoma - WA","STATE_ALPHA":"WA","FEATURE_NAME":"Tacoma","PRIM_LAT_DEC":47.2528769,"PRIM_LONG_DEC":-122.4442906},{"FEATURE_ID":1531916,"PLACE_NAME":"Vancouver - WA","STATE_ALPHA":"WA","FEATURE_NAME":"Vancouver","PRIM_LAT_DEC":45.6387281,"PRIM_LONG_DEC":-122.6614861},{"FEATURE_ID":1512000,"PLACE_NAME":"Bellevue - WA","STATE_ALPHA":"WA","FEATURE_NAME":"Bellevue","PRIM_LAT_DEC":47.610377,"PRIM_LONG_DEC":-122.2006786},{"FEATURE_ID":1530952,"PLACE_NAME":"Kent - WA","STATE_ALPHA":"WA","FEATURE_NAME":"Kent","PRIM_LAT_DEC":47.3809335,"PRIM_LONG_DEC":-122.2348431},{"FEATURE_ID":1512198,"PLACE_NAME":"Everett - WA","STATE_ALPHA":"WA","FEATURE_NAME":"Everett","PRIM_LAT_DEC":47.9789848,"PRIM_LONG_DEC":-122.2020794},{"FEATURE_ID":1512599,"PLACE_NAME":"Renton - WA","STATE_ALPHA":"WA","FEATURE_NAME":"Renton","PRIM_LAT_DEC":47.4828776,"PRIM_LONG_DEC":-122.2170661},{"FEATURE_ID":1967430,"PLACE_NAME":"Spokane Valley - WA","STATE_ALPHA":"WA","FEATURE_NAME":"Spokane Valley","PRIM_LAT_DEC":47.6732281,"PRIM_LONG_DEC":-117.2393748},{"FEATURE_ID":1534582,"PLACE_NAME":"Federal Way - WA","STATE_ALPHA":"WA","FEATURE_NAME":"Federal Way","PRIM_LAT_DEC":47.3223221,"PRIM_LONG_DEC":-122.3126222},{"FEATURE_ID":1509643,"PLACE_NAME":"Yakima - WA","STATE_ALPHA":"WA","FEATURE_NAME":"Yakima","PRIM_LAT_DEC":46.6020711,"PRIM_LONG_DEC":-120.5058987},{"FEATURE_ID":1512352,"PLACE_NAME":"Kirkland - WA","STATE_ALPHA":"WA","FEATURE_NAME":"Kirkland","PRIM_LAT_DEC":47.6814876,"PRIM_LONG_DEC":-122.2087353},{"FEATURE_ID":1512001,"PLACE_NAME":"Bellingham - WA","STATE_ALPHA":"WA","FEATURE_NAME":"Bellingham","PRIM_LAT_DEC":48.7595529,"PRIM_LONG_DEC":-122.4882249},{"FEATURE_ID":1512347,"PLACE_NAME":"Kennewick - WA","STATE_ALPHA":"WA","FEATURE_NAME":"Kennewick","PRIM_LAT_DEC":46.2112458,"PRIM_LONG_DEC":-119.1372338},{"FEATURE_ID":1511974,"PLACE_NAME":"Auburn - WA","STATE_ALPHA":"WA","FEATURE_NAME":"Auburn","PRIM_LAT_DEC":47.3073228,"PRIM_LONG_DEC":-122.2284532},{"FEATURE_ID":1513388,"PLACE_NAME":"Pasco - WA","STATE_ALPHA":"WA","FEATURE_NAME":"Pasco","PRIM_LAT_DEC":46.2395793,"PRIM_LONG_DEC":-119.1005657},{"FEATURE_ID":1533331,"PLACE_NAME":"Redmond - WA","STATE_ALPHA":"WA","FEATURE_NAME":"Redmond","PRIM_LAT_DEC":47.6739882,"PRIM_LONG_DEC":-122.121512},{"FEATURE_ID":1512435,"PLACE_NAME":"Marysville - WA","STATE_ALPHA":"WA","FEATURE_NAME":"Marysville","PRIM_LAT_DEC":48.0517637,"PRIM_LONG_DEC":-122.1770818},{"FEATURE_ID":1508071,"PLACE_NAME":"Sammamish - WA","STATE_ALPHA":"WA","FEATURE_NAME":"Sammamish","PRIM_LAT_DEC":47.6417664,"PRIM_LONG_DEC":-122.0803998},{"FEATURE_ID":1512373,"PLACE_NAME":"Lakewood - WA","STATE_ALPHA":"WA","FEATURE_NAME":"Lakewood","PRIM_LAT_DEC":47.1717649,"PRIM_LONG_DEC":-122.518458},{"FEATURE_ID":1530965,"PLACE_NAME":"Lakewood - WA","STATE_ALPHA":"WA","FEATURE_NAME":"Lakewood","PRIM_LAT_DEC":48.1520431,"PRIM_LONG_DEC":-122.2073655},{"FEATURE_ID":1531705,"PLACE_NAME":"Lakewood - WA","STATE_ALPHA":"WA","FEATURE_NAME":"Lakewood","PRIM_LAT_DEC":47.5631545,"PRIM_LONG_DEC":-122.2717906},{"FEATURE_ID":1513395,"PLACE_NAME":"Richland - WA","STATE_ALPHA":"WA","FEATURE_NAME":"Richland","PRIM_LAT_DEC":46.2856907,"PRIM_LONG_DEC":-119.2844621},{"FEATURE_ID":1699810,"PLACE_NAME":"Shoreline - WA","STATE_ALPHA":"WA","FEATURE_NAME":"Shoreline","PRIM_LAT_DEC":47.7556531,"PRIM_LONG_DEC":-122.3415178},{"FEATURE_ID":1533353,"PLACE_NAME":"Olympia - WA","STATE_ALPHA":"WA","FEATURE_NAME":"Olympia","PRIM_LAT_DEC":47.0378741,"PRIM_LONG_DEC":-122.9006951},{"FEATURE_ID":1512362,"PLACE_NAME":"Lacey - WA","STATE_ALPHA":"WA","FEATURE_NAME":"Lacey","PRIM_LAT_DEC":47.0342629,"PRIM_LONG_DEC":-122.8231915},{"FEATURE_ID":1534570,"PLACE_NAME":"Burien - WA","STATE_ALPHA":"WA","FEATURE_NAME":"Burien","PRIM_LAT_DEC":47.4703768,"PRIM_LONG_DEC":-122.3467918},{"FEATURE_ID":201738,"PLACE_NAME":"Denver - CO","STATE_ALPHA":"CO","FEATURE_NAME":"Denver","PRIM_LAT_DEC":39.7391536,"PRIM_LONG_DEC":-104.9847034},{"FEATURE_ID":204797,"PLACE_NAME":"Colorado Springs - CO","STATE_ALPHA":"CO","FEATURE_NAME":"Colorado Springs","PRIM_LAT_DEC":38.8338816,"PRIM_LONG_DEC":-104.8213634},{"FEATURE_ID":204737,"PLACE_NAME":"Aurora - CO","STATE_ALPHA":"CO","FEATURE_NAME":"Aurora","PRIM_LAT_DEC":39.7294319,"PRIM_LONG_DEC":-104.8319195},{"FEATURE_ID":204673,"PLACE_NAME":"Fort Collins - CO","STATE_ALPHA":"CO","FEATURE_NAME":"Fort Collins","PRIM_LAT_DEC":40.5852602,"PRIM_LONG_DEC":-105.084423},{"FEATURE_ID":181620,"PLACE_NAME":"Lakewood - CO","STATE_ALPHA":"CO","FEATURE_NAME":"Lakewood","PRIM_LAT_DEC":39.7047095,"PRIM_LONG_DEC":-105.0813734},{"FEATURE_ID":181265,"PLACE_NAME":"Thornton - CO","STATE_ALPHA":"CO","FEATURE_NAME":"Thornton","PRIM_LAT_DEC":39.8680412,"PRIM_LONG_DEC":-104.9719243},{"FEATURE_ID":204709,"PLACE_NAME":"Arvada - CO","STATE_ALPHA":"CO","FEATURE_NAME":"Arvada","PRIM_LAT_DEC":39.8027644,"PRIM_LONG_DEC":-105.0874842},{"FEATURE_ID":204703,"PLACE_NAME":"Westminster - CO","STATE_ALPHA":"CO","FEATURE_NAME":"Westminster","PRIM_LAT_DEC":39.8366528,"PRIM_LONG_DEC":-105.0372046},{"FEATURE_ID":204798,"PLACE_NAME":"Pueblo - CO","STATE_ALPHA":"CO","FEATURE_NAME":"Pueblo","PRIM_LAT_DEC":38.2544472,"PRIM_LONG_DEC":-104.609141},{"FEATURE_ID":1890924,"PLACE_NAME":"Centennial - CO","STATE_ALPHA":"CO","FEATURE_NAME":"Centennial","PRIM_LAT_DEC":39.579155,"PRIM_LONG_DEC":-104.8769227},{"FEATURE_ID":180649,"PLACE_NAME":"Greeley - CO","STATE_ALPHA":"CO","FEATURE_NAME":"Greeley","PRIM_LAT_DEC":40.4233142,"PRIM_LONG_DEC":-104.7091322},{"FEATURE_ID":178680,"PLACE_NAME":"Boulder - CO","STATE_ALPHA":"CO","FEATURE_NAME":"Boulder","PRIM_LAT_DEC":40.0149856,"PRIM_LONG_DEC":-105.2705456},{"FEATURE_ID":202560,"PLACE_NAME":"Longmont - CO","STATE_ALPHA":"CO","FEATURE_NAME":"Longmont","PRIM_LAT_DEC":40.1672069,"PRIM_LONG_DEC":-105.1019275},{"FEATURE_ID":177720,"PLACE_NAME":"Loveland - CO","STATE_ALPHA":"CO","FEATURE_NAME":"Loveland","PRIM_LAT_DEC":40.3977612,"PRIM_LONG_DEC":-105.0749801},{"FEATURE_ID":204704,"PLACE_NAME":"Broomfield - CO","STATE_ALPHA":"CO","FEATURE_NAME":"Broomfield","PRIM_LAT_DEC":39.9205411,"PRIM_LONG_DEC":-105.0866504},{"FEATURE_ID":204662,"PLACE_NAME":"Grand Junction - CO","STATE_ALPHA":"CO","FEATURE_NAME":"Grand Junction","PRIM_LAT_DEC":39.0638705,"PRIM_LONG_DEC":-108.5506486},{"FEATURE_ID":184666,"PLACE_NAME":"Commerce City - CO","STATE_ALPHA":"CO","FEATURE_NAME":"Commerce City","PRIM_LAT_DEC":39.8083196,"PRIM_LONG_DEC":-104.9338675},{"FEATURE_ID":531871,"PLACE_NAME":"Washington - DC","STATE_ALPHA":"DC","FEATURE_NAME":"Washington","PRIM_LAT_DEC":38.8951118,"PRIM_LONG_DEC":-77.0363658},{"FEATURE_ID":617565,"PLACE_NAME":"Boston - MA","STATE_ALPHA":"MA","FEATURE_NAME":"Boston","PRIM_LAT_DEC":42.3584308,"PRIM_LONG_DEC":-71.0597732},{"FEATURE_ID":617867,"PLACE_NAME":"Worcester - MA","STATE_ALPHA":"MA","FEATURE_NAME":"Worcester","PRIM_LAT_DEC":42.2625932,"PRIM_LONG_DEC":-71.8022934},{"FEATURE_ID":609092,"PLACE_NAME":"Springfield - MA","STATE_ALPHA":"MA","FEATURE_NAME":"Springfield","PRIM_LAT_DEC":42.1014831,"PRIM_LONG_DEC":-72.589811},{"FEATURE_ID":610601,"PLACE_NAME":"Cambridge - MA","STATE_ALPHA":"MA","FEATURE_NAME":"Cambridge","PRIM_LAT_DEC":42.2445377,"PRIM_LONG_DEC":-71.8120157},{"FEATURE_ID":617365,"PLACE_NAME":"Cambridge - MA","STATE_ALPHA":"MA","FEATURE_NAME":"Cambridge","PRIM_LAT_DEC":42.375097,"PRIM_LONG_DEC":-71.1056079},{"FEATURE_ID":611832,"PLACE_NAME":"Lowell - MA","STATE_ALPHA":"MA","FEATURE_NAME":"Lowell","PRIM_LAT_DEC":42.6334247,"PRIM_LONG_DEC":-71.3161718},{"FEATURE_ID":617571,"PLACE_NAME":"Brockton - MA","STATE_ALPHA":"MA","FEATURE_NAME":"Brockton","PRIM_LAT_DEC":42.0834335,"PRIM_LONG_DEC":-71.0183787},{"FEATURE_ID":613714,"PLACE_NAME":"New Bedford - MA","STATE_ALPHA":"MA","FEATURE_NAME":"New Bedford","PRIM_LAT_DEC":41.6362152,"PRIM_LONG_DEC":-70.934205},{"FEATURE_ID":617701,"PLACE_NAME":"Quincy - MA","STATE_ALPHA":"MA","FEATURE_NAME":"Quincy","PRIM_LAT_DEC":42.2528772,"PRIM_LONG_DEC":-71.0022705},{"FEATURE_ID":613376,"PLACE_NAME":"Lynn - MA","STATE_ALPHA":"MA","FEATURE_NAME":"Lynn","PRIM_LAT_DEC":42.466763,"PRIM_LONG_DEC":-70.9494939},{"FEATURE_ID":612595,"PLACE_NAME":"Fall River - MA","STATE_ALPHA":"MA","FEATURE_NAME":"Fall River","PRIM_LAT_DEC":41.7014912,"PRIM_LONG_DEC":-71.1550451},{"FEATURE_ID":617675,"PLACE_NAME":"Newton - MA","STATE_ALPHA":"MA","FEATURE_NAME":"Newton","PRIM_LAT_DEC":42.3370414,"PRIM_LONG_DEC":-71.2092214},{"FEATURE_ID":612815,"PLACE_NAME":"Somerville - MA","STATE_ALPHA":"MA","FEATURE_NAME":"Somerville","PRIM_LAT_DEC":42.3875968,"PRIM_LONG_DEC":-71.0994968},{"FEATURE_ID":612332,"PLACE_NAME":"Lawrence - MA","STATE_ALPHA":"MA","FEATURE_NAME":"Lawrence","PRIM_LAT_DEC":42.7070354,"PRIM_LONG_DEC":-71.1631137},{"FEATURE_ID":611641,"PLACE_NAME":"Framingham - MA","STATE_ALPHA":"MA","FEATURE_NAME":"Framingham","PRIM_LAT_DEC":42.2792625,"PRIM_LONG_DEC":-71.416172},{"FEATURE_ID":612607,"PLACE_NAME":"Haverhill - MA","STATE_ALPHA":"MA","FEATURE_NAME":"Haverhill","PRIM_LAT_DEC":42.7762015,"PRIM_LONG_DEC":-71.0772796},{"FEATURE_ID":612400,"PLACE_NAME":"Waltham - MA","STATE_ALPHA":"MA","FEATURE_NAME":"Waltham","PRIM_LAT_DEC":42.3764852,"PRIM_LONG_DEC":-71.2356113},{"FEATURE_ID":612773,"PLACE_NAME":"Malden - MA","STATE_ALPHA":"MA","FEATURE_NAME":"Malden","PRIM_LAT_DEC":42.4250964,"PRIM_LONG_DEC":-71.066163},{"FEATURE_ID":613154,"PLACE_NAME":"Taunton - MA","STATE_ALPHA":"MA","FEATURE_NAME":"Taunton","PRIM_LAT_DEC":41.900101,"PRIM_LONG_DEC":-71.0897675},{"FEATURE_ID":612778,"PLACE_NAME":"Medford - MA","STATE_ALPHA":"MA","FEATURE_NAME":"Medford","PRIM_LAT_DEC":42.4184296,"PRIM_LONG_DEC":-71.1061639},{"FEATURE_ID":617597,"PLACE_NAME":"Chicopee - MA","STATE_ALPHA":"MA","FEATURE_NAME":"Chicopee","PRIM_LAT_DEC":42.1487043,"PRIM_LONG_DEC":-72.6078672},{"FEATURE_ID":612810,"PLACE_NAME":"Revere - MA","STATE_ALPHA":"MA","FEATURE_NAME":"Revere","PRIM_LAT_DEC":42.4084302,"PRIM_LONG_DEC":-71.0119948},{"FEATURE_ID":614307,"PLACE_NAME":"Peabody - MA","STATE_ALPHA":"MA","FEATURE_NAME":"Peabody","PRIM_LAT_DEC":42.5278731,"PRIM_LONG_DEC":-70.9286609},{"FEATURE_ID":1326388,"PLACE_NAME":"Memphis - TN","STATE_ALPHA":"TN","FEATURE_NAME":"Memphis","PRIM_LAT_DEC":35.1495343,"PRIM_LONG_DEC":-90.0489801},{"FEATURE_ID":1648562,"PLACE_NAME":"Knoxville - TN","STATE_ALPHA":"TN","FEATURE_NAME":"Knoxville","PRIM_LAT_DEC":35.9606384,"PRIM_LONG_DEC":-83.9207392},{"FEATURE_ID":1307240,"PLACE_NAME":"Chattanooga - TN","STATE_ALPHA":"TN","FEATURE_NAME":"Chattanooga","PRIM_LAT_DEC":35.0456297,"PRIM_LONG_DEC":-85.3096801},{"FEATURE_ID":1269467,"PLACE_NAME":"Clarksville - TN","STATE_ALPHA":"TN","FEATURE_NAME":"Clarksville","PRIM_LAT_DEC":36.5297706,"PRIM_LONG_DEC":-87.3594529},{"FEATURE_ID":1295105,"PLACE_NAME":"Murfreesboro - TN","STATE_ALPHA":"TN","FEATURE_NAME":"Murfreesboro","PRIM_LAT_DEC":35.8456213,"PRIM_LONG_DEC":-86.39027},{"FEATURE_ID":1284816,"PLACE_NAME":"Franklin - TN","STATE_ALPHA":"TN","FEATURE_NAME":"Franklin","PRIM_LAT_DEC":35.9250637,"PRIM_LONG_DEC":-86.86889},{"FEATURE_ID":1289178,"PLACE_NAME":"Jackson - TN","STATE_ALPHA":"TN","FEATURE_NAME":"Jackson","PRIM_LAT_DEC":35.6145169,"PRIM_LONG_DEC":-88.8139469},{"FEATURE_ID":1328579,"PLACE_NAME":"Johnson City - TN","STATE_ALPHA":"TN","FEATURE_NAME":"Johnson City","PRIM_LAT_DEC":36.3134397,"PRIM_LONG_DEC":-82.3534727},{"FEATURE_ID":1304976,"PLACE_NAME":"Bartlett - TN","STATE_ALPHA":"TN","FEATURE_NAME":"Bartlett","PRIM_LAT_DEC":35.2045329,"PRIM_LONG_DEC":-89.8739753},{"FEATURE_ID":1287389,"PLACE_NAME":"Hendersonville - TN","STATE_ALPHA":"TN","FEATURE_NAME":"Hendersonville","PRIM_LAT_DEC":36.3047735,"PRIM_LONG_DEC":-86.6199957},{"FEATURE_ID":1303478,"PLACE_NAME":"Kingsport - TN","STATE_ALPHA":"TN","FEATURE_NAME":"Kingsport","PRIM_LAT_DEC":36.548434,"PRIM_LONG_DEC":-82.5618186},{"FEATURE_ID":1617959,"PLACE_NAME":"Detroit - MI","STATE_ALPHA":"MI","FEATURE_NAME":"Detroit","PRIM_LAT_DEC":42.331427,"PRIM_LONG_DEC":-83.0457538},{"FEATURE_ID":627105,"PLACE_NAME":"Grand Rapids - MI","STATE_ALPHA":"MI","FEATURE_NAME":"Grand Rapids","PRIM_LAT_DEC":42.9633599,"PRIM_LONG_DEC":-85.6680863},{"FEATURE_ID":1620055,"PLACE_NAME":"Grand Rapids - MI","STATE_ALPHA":"MI","FEATURE_NAME":"Grand Rapids","PRIM_LAT_DEC":46.7657749,"PRIM_LONG_DEC":-89.2756983},{"FEATURE_ID":1615781,"PLACE_NAME":"Warren - MI","STATE_ALPHA":"MI","FEATURE_NAME":"Warren","PRIM_LAT_DEC":42.49982,"PRIM_LONG_DEC":-83.005486},{"FEATURE_ID":638798,"PLACE_NAME":"Sterling Heights - MI","STATE_ALPHA":"MI","FEATURE_NAME":"Sterling Heights","PRIM_LAT_DEC":42.5803122,"PRIM_LONG_DEC":-83.0302033},{"FEATURE_ID":620133,"PLACE_NAME":"Ann Arbor - MI","STATE_ALPHA":"MI","FEATURE_NAME":"Ann Arbor","PRIM_LAT_DEC":42.2708716,"PRIM_LONG_DEC":-83.7263294},{"FEATURE_ID":1625035,"PLACE_NAME":"Lansing - MI","STATE_ALPHA":"MI","FEATURE_NAME":"Lansing","PRIM_LAT_DEC":42.732535,"PRIM_LONG_DEC":-84.5555347},{"FEATURE_ID":626170,"PLACE_NAME":"Flint - MI","STATE_ALPHA":"MI","FEATURE_NAME":"Flint","PRIM_LAT_DEC":43.0125274,"PRIM_LONG_DEC":-83.6874562},{"FEATURE_ID":624432,"PLACE_NAME":"Dearborn - MI","STATE_ALPHA":"MI","FEATURE_NAME":"Dearborn","PRIM_LAT_DEC":42.3222599,"PRIM_LONG_DEC":-83.1763145},{"FEATURE_ID":630841,"PLACE_NAME":"Livonia - MI","STATE_ALPHA":"MI","FEATURE_NAME":"Livonia","PRIM_LAT_DEC":42.36837,"PRIM_LONG_DEC":-83.3527097},{"FEATURE_ID":1615125,"PLACE_NAME":"Troy - MI","STATE_ALPHA":"MI","FEATURE_NAME":"Troy","PRIM_LAT_DEC":42.6055893,"PRIM_LONG_DEC":-83.1499304},{"FEATURE_ID":1621966,"PLACE_NAME":"Troy - MI","STATE_ALPHA":"MI","FEATURE_NAME":"Troy","PRIM_LAT_DEC":43.7430676,"PRIM_LONG_DEC":-86.0192321},{"FEATURE_ID":1616212,"PLACE_NAME":"Westland - MI","STATE_ALPHA":"MI","FEATURE_NAME":"Westland","PRIM_LAT_DEC":42.324204,"PRIM_LONG_DEC":-83.400211},{"FEATURE_ID":1616988,"PLACE_NAME":"Farmington Hills - MI","STATE_ALPHA":"MI","FEATURE_NAME":"Farmington Hills","PRIM_LAT_DEC":42.4853125,"PRIM_LONG_DEC":-83.3771553},{"FEATURE_ID":629439,"PLACE_NAME":"Kalamazoo - MI","STATE_ALPHA":"MI","FEATURE_NAME":"Kalamazoo","PRIM_LAT_DEC":42.2917069,"PRIM_LONG_DEC":-85.5872286},{"FEATURE_ID":1616863,"PLACE_NAME":"Wyoming - MI","STATE_ALPHA":"MI","FEATURE_NAME":"Wyoming","PRIM_LAT_DEC":42.9133602,"PRIM_LONG_DEC":-85.7053085},{"FEATURE_ID":1618749,"PLACE_NAME":"Wyoming - MI","STATE_ALPHA":"MI","FEATURE_NAME":"Wyoming","PRIM_LAT_DEC":47.4176892,"PRIM_LONG_DEC":-88.082606},{"FEATURE_ID":1675440,"PLACE_NAME":"Rochester Hills - MI","STATE_ALPHA":"MI","FEATURE_NAME":"Rochester Hills","PRIM_LAT_DEC":42.6583661,"PRIM_LONG_DEC":-83.1499322},{"FEATURE_ID":638439,"PLACE_NAME":"Southfield - MI","STATE_ALPHA":"MI","FEATURE_NAME":"Southfield","PRIM_LAT_DEC":42.4733689,"PRIM_LONG_DEC":-83.2218731},{"FEATURE_ID":1614609,"PLACE_NAME":"Taylor - MI","STATE_ALPHA":"MI","FEATURE_NAME":"Taylor","PRIM_LAT_DEC":42.240872,"PRIM_LONG_DEC":-83.2696509},{"FEATURE_ID":633773,"PLACE_NAME":"Novi - MI","STATE_ALPHA":"MI","FEATURE_NAME":"Novi","PRIM_LAT_DEC":42.48059,"PRIM_LONG_DEC":-83.4754913},{"FEATURE_ID":635224,"PLACE_NAME":"Pontiac - MI","STATE_ALPHA":"MI","FEATURE_NAME":"Pontiac","PRIM_LAT_DEC":42.6389216,"PRIM_LONG_DEC":-83.2910468},{"FEATURE_ID":636352,"PLACE_NAME":"Royal Oak - MI","STATE_ALPHA":"MI","FEATURE_NAME":"Royal Oak","PRIM_LAT_DEC":42.4894801,"PRIM_LONG_DEC":-83.1446485},{"FEATURE_ID":624433,"PLACE_NAME":"Dearborn Heights - MI","STATE_ALPHA":"MI","FEATURE_NAME":"Dearborn Heights","PRIM_LAT_DEC":42.3369816,"PRIM_LONG_DEC":-83.2732627},{"FEATURE_ID":629607,"PLACE_NAME":"Kentwood - MI","STATE_ALPHA":"MI","FEATURE_NAME":"Kentwood","PRIM_LAT_DEC":42.8694731,"PRIM_LONG_DEC":-85.6447492},{"FEATURE_ID":620755,"PLACE_NAME":"Battle Creek - MI","STATE_ALPHA":"MI","FEATURE_NAME":"Battle Creek","PRIM_LAT_DEC":42.3211522,"PRIM_LONG_DEC":-85.1797142},{"FEATURE_ID":636498,"PLACE_NAME":"Saginaw - MI","STATE_ALPHA":"MI","FEATURE_NAME":"Saginaw","PRIM_LAT_DEC":43.4194699,"PRIM_LONG_DEC":-83.9508068},{"FEATURE_ID":1102140,"PLACE_NAME":"Oklahoma City - OK","STATE_ALPHA":"OK","FEATURE_NAME":"Oklahoma City","PRIM_LAT_DEC":35.4675602,"PRIM_LONG_DEC":-97.5164276},{"FEATURE_ID":1100962,"PLACE_NAME":"Tulsa - OK","STATE_ALPHA":"OK","FEATURE_NAME":"Tulsa","PRIM_LAT_DEC":36.1539816,"PRIM_LONG_DEC":-95.992775},{"FEATURE_ID":1095903,"PLACE_NAME":"Norman - OK","STATE_ALPHA":"OK","FEATURE_NAME":"Norman","PRIM_LAT_DEC":35.2225668,"PRIM_LONG_DEC":-97.4394777},{"FEATURE_ID":1090512,"PLACE_NAME":"Broken Arrow - OK","STATE_ALPHA":"OK","FEATURE_NAME":"Broken Arrow","PRIM_LAT_DEC":36.0525993,"PRIM_LONG_DEC":-95.7908195},{"FEATURE_ID":1092492,"PLACE_NAME":"Edmond - OK","STATE_ALPHA":"OK","FEATURE_NAME":"Edmond","PRIM_LAT_DEC":35.6528323,"PRIM_LONG_DEC":-97.4780954},{"FEATURE_ID":1094539,"PLACE_NAME":"Lawton - OK","STATE_ALPHA":"OK","FEATURE_NAME":"Lawton","PRIM_LAT_DEC":34.6086854,"PRIM_LONG_DEC":-98.3903305},{"FEATURE_ID":1095494,"PLACE_NAME":"Moore - OK","STATE_ALPHA":"OK","FEATURE_NAME":"Moore","PRIM_LAT_DEC":35.3395079,"PRIM_LONG_DEC":-97.4867028},{"FEATURE_ID":1095384,"PLACE_NAME":"Midwest City - OK","STATE_ALPHA":"OK","FEATURE_NAME":"Midwest City","PRIM_LAT_DEC":35.4495065,"PRIM_LONG_DEC":-97.3967019},{"FEATURE_ID":1098541,"PLACE_NAME":"Stillwater - OK","STATE_ALPHA":"OK","FEATURE_NAME":"Stillwater","PRIM_LAT_DEC":36.1156071,"PRIM_LONG_DEC":-97.0583681},{"FEATURE_ID":1092626,"PLACE_NAME":"Enid - OK","STATE_ALPHA":"OK","FEATURE_NAME":"Enid","PRIM_LAT_DEC":36.3955891,"PRIM_LONG_DEC":-97.8783911},{"FEATURE_ID":1136645,"PLACE_NAME":"Portland - OR","STATE_ALPHA":"OR","FEATURE_NAME":"Portland","PRIM_LAT_DEC":45.5234515,"PRIM_LONG_DEC":-122.6762071},{"FEATURE_ID":1167861,"PLACE_NAME":"Salem - OR","STATE_ALPHA":"OR","FEATURE_NAME":"Salem","PRIM_LAT_DEC":44.9428975,"PRIM_LONG_DEC":-123.0350963},{"FEATURE_ID":1120527,"PLACE_NAME":"Eugene - OR","STATE_ALPHA":"OR","FEATURE_NAME":"Eugene","PRIM_LAT_DEC":44.0520691,"PRIM_LONG_DEC":-123.0867536},{"FEATURE_ID":1121424,"PLACE_NAME":"Gresham - OR","STATE_ALPHA":"OR","FEATURE_NAME":"Gresham","PRIM_LAT_DEC":45.4981757,"PRIM_LONG_DEC":-122.4314796},{"FEATURE_ID":1163049,"PLACE_NAME":"Hillsboro - OR","STATE_ALPHA":"OR","FEATURE_NAME":"Hillsboro","PRIM_LAT_DEC":45.5228939,"PRIM_LONG_DEC":-122.989827},{"FEATURE_ID":1137914,"PLACE_NAME":"Bend - OR","STATE_ALPHA":"OR","FEATURE_NAME":"Bend","PRIM_LAT_DEC":44.0581728,"PRIM_LONG_DEC":-121.3153096},{"FEATURE_ID":1637830,"PLACE_NAME":"Beaverton - OR","STATE_ALPHA":"OR","FEATURE_NAME":"Beaverton","PRIM_LAT_DEC":45.487062,"PRIM_LONG_DEC":-122.8037102},{"FEATURE_ID":1124040,"PLACE_NAME":"Medford - OR","STATE_ALPHA":"OR","FEATURE_NAME":"Medford","PRIM_LAT_DEC":42.3265153,"PRIM_LONG_DEC":-122.8755949},{"FEATURE_ID":1127456,"PLACE_NAME":"Springfield - OR","STATE_ALPHA":"OR","FEATURE_NAME":"Springfield","PRIM_LAT_DEC":44.0462362,"PRIM_LONG_DEC":-123.0220289},{"FEATURE_ID":1140162,"PLACE_NAME":"Corvallis - OR","STATE_ALPHA":"OR","FEATURE_NAME":"Corvallis","PRIM_LAT_DEC":44.5645659,"PRIM_LONG_DEC":-123.2620435},{"FEATURE_ID":1128092,"PLACE_NAME":"Tigard - OR","STATE_ALPHA":"OR","FEATURE_NAME":"Tigard","PRIM_LAT_DEC":45.4312294,"PRIM_LONG_DEC":-122.7714861},{"FEATURE_ID":1116796,"PLACE_NAME":"Albany - OR","STATE_ALPHA":"OR","FEATURE_NAME":"Albany","PRIM_LAT_DEC":44.6365107,"PRIM_LONG_DEC":-123.1059282},{"FEATURE_ID":847388,"PLACE_NAME":"Las Vegas - NV","STATE_ALPHA":"NV","FEATURE_NAME":"Las Vegas","PRIM_LAT_DEC":36.1749705,"PRIM_LONG_DEC":-115.137223},{"FEATURE_ID":856267,"PLACE_NAME":"Henderson - NV","STATE_ALPHA":"NV","FEATURE_NAME":"Henderson","PRIM_LAT_DEC":36.0396988,"PRIM_LONG_DEC":-114.9819368},{"FEATURE_ID":861100,"PLACE_NAME":"Reno - NV","STATE_ALPHA":"NV","FEATURE_NAME":"Reno","PRIM_LAT_DEC":39.5296329,"PRIM_LONG_DEC":-119.8138027},{"FEATURE_ID":847435,"PLACE_NAME":"North Las Vegas - NV","STATE_ALPHA":"NV","FEATURE_NAME":"North Las Vegas","PRIM_LAT_DEC":36.1988592,"PRIM_LONG_DEC":-115.1175013},{"FEATURE_ID":856391,"PLACE_NAME":"Sparks - NV","STATE_ALPHA":"NV","FEATURE_NAME":"Sparks","PRIM_LAT_DEC":39.5349112,"PRIM_LONG_DEC":-119.7526886},{"FEATURE_ID":863976,"PLACE_NAME":"Carson City - NV","STATE_ALPHA":"NV","FEATURE_NAME":"Carson City","PRIM_LAT_DEC":39.1637984,"PRIM_LONG_DEC":-119.7674034},{"FEATURE_ID":1967434,"PLACE_NAME":"Louisville\/Jefferson County metro government (balance) - KY","STATE_ALPHA":"KY","FEATURE_NAME":"Louisville\/Jefferson County metro government (balance)","PRIM_LAT_DEC":38.1663089,"PRIM_LONG_DEC":-85.6485247},{"FEATURE_ID":487744,"PLACE_NAME":"Bowling Green - KY","STATE_ALPHA":"KY","FEATURE_NAME":"Bowling Green","PRIM_LAT_DEC":36.9903199,"PRIM_LONG_DEC":-86.4436018},{"FEATURE_ID":500082,"PLACE_NAME":"Owensboro - KY","STATE_ALPHA":"KY","FEATURE_NAME":"Owensboro","PRIM_LAT_DEC":37.7742152,"PRIM_LONG_DEC":-87.1133304},{"FEATURE_ID":597040,"PLACE_NAME":"Baltimore - MD","STATE_ALPHA":"MD","FEATURE_NAME":"Baltimore","PRIM_LAT_DEC":39.2903848,"PRIM_LONG_DEC":-76.6121893},{"FEATURE_ID":584497,"PLACE_NAME":"Frederick - MD","STATE_ALPHA":"MD","FEATURE_NAME":"Frederick","PRIM_LAT_DEC":39.4142688,"PRIM_LONG_DEC":-77.4105409},{"FEATURE_ID":586901,"PLACE_NAME":"Rockville - MD","STATE_ALPHA":"MD","FEATURE_NAME":"Rockville","PRIM_LAT_DEC":39.0839973,"PRIM_LONG_DEC":-77.1527578},{"FEATURE_ID":593389,"PLACE_NAME":"Gaithersburg - MD","STATE_ALPHA":"MD","FEATURE_NAME":"Gaithersburg","PRIM_LAT_DEC":39.1434406,"PRIM_LONG_DEC":-77.2013705},{"FEATURE_ID":597104,"PLACE_NAME":"Bowie - MD","STATE_ALPHA":"MD","FEATURE_NAME":"Bowie","PRIM_LAT_DEC":38.9427778,"PRIM_LONG_DEC":-76.7302778},{"FEATURE_ID":1577901,"PLACE_NAME":"Milwaukee - WI","STATE_ALPHA":"WI","FEATURE_NAME":"Milwaukee","PRIM_LAT_DEC":43.0389025,"PRIM_LONG_DEC":-87.9064736},{"FEATURE_ID":1581834,"PLACE_NAME":"Madison - WI","STATE_ALPHA":"WI","FEATURE_NAME":"Madison","PRIM_LAT_DEC":43.0730517,"PRIM_LONG_DEC":-89.4012302},{"FEATURE_ID":1565801,"PLACE_NAME":"Green Bay - WI","STATE_ALPHA":"WI","FEATURE_NAME":"Green Bay","PRIM_LAT_DEC":44.519159,"PRIM_LONG_DEC":-88.019826},{"FEATURE_ID":1567416,"PLACE_NAME":"Kenosha - WI","STATE_ALPHA":"WI","FEATURE_NAME":"Kenosha","PRIM_LAT_DEC":42.5847425,"PRIM_LONG_DEC":-87.8211854},{"FEATURE_ID":1572015,"PLACE_NAME":"Racine - WI","STATE_ALPHA":"WI","FEATURE_NAME":"Racine","PRIM_LAT_DEC":42.7261309,"PRIM_LONG_DEC":-87.7828523},{"FEATURE_ID":1560914,"PLACE_NAME":"Appleton - WI","STATE_ALPHA":"WI","FEATURE_NAME":"Appleton","PRIM_LAT_DEC":44.2619309,"PRIM_LONG_DEC":-88.4153847},{"FEATURE_ID":1576312,"PLACE_NAME":"Waukesha - WI","STATE_ALPHA":"WI","FEATURE_NAME":"Waukesha","PRIM_LAT_DEC":43.0116784,"PRIM_LONG_DEC":-88.2314813},{"FEATURE_ID":1564402,"PLACE_NAME":"Eau Claire - WI","STATE_ALPHA":"WI","FEATURE_NAME":"Eau Claire","PRIM_LAT_DEC":44.811349,"PRIM_LONG_DEC":-91.4984941},{"FEATURE_ID":1570874,"PLACE_NAME":"Oshkosh - WI","STATE_ALPHA":"WI","FEATURE_NAME":"Oshkosh","PRIM_LAT_DEC":44.0247062,"PRIM_LONG_DEC":-88.5426136},{"FEATURE_ID":1567100,"PLACE_NAME":"Janesville - WI","STATE_ALPHA":"WI","FEATURE_NAME":"Janesville","PRIM_LAT_DEC":42.6827885,"PRIM_LONG_DEC":-89.0187223},{"FEATURE_ID":1576439,"PLACE_NAME":"West Allis - WI","STATE_ALPHA":"WI","FEATURE_NAME":"West Allis","PRIM_LAT_DEC":43.0166806,"PRIM_LONG_DEC":-88.0070315},{"FEATURE_ID":1567672,"PLACE_NAME":"La Crosse - WI","STATE_ALPHA":"WI","FEATURE_NAME":"La Crosse","PRIM_LAT_DEC":43.8013556,"PRIM_LONG_DEC":-91.2395807},{"FEATURE_ID":928679,"PLACE_NAME":"Albuquerque - NM","STATE_ALPHA":"NM","FEATURE_NAME":"Albuquerque","PRIM_LAT_DEC":35.0844909,"PRIM_LONG_DEC":-106.6511367},{"FEATURE_ID":899715,"PLACE_NAME":"Las Cruces - NM","STATE_ALPHA":"NM","FEATURE_NAME":"Las Cruces","PRIM_LAT_DEC":32.3123157,"PRIM_LONG_DEC":-106.7783374},{"FEATURE_ID":1699884,"PLACE_NAME":"Rio Rancho - NM","STATE_ALPHA":"NM","FEATURE_NAME":"Rio Rancho","PRIM_LAT_DEC":35.233375,"PRIM_LONG_DEC":-106.6644716},{"FEATURE_ID":936823,"PLACE_NAME":"Santa Fe - NM","STATE_ALPHA":"NM","FEATURE_NAME":"Santa Fe","PRIM_LAT_DEC":35.6869752,"PRIM_LONG_DEC":-105.937799},{"FEATURE_ID":351615,"PLACE_NAME":"Atlanta - GA","STATE_ALPHA":"GA","FEATURE_NAME":"Atlanta","PRIM_LAT_DEC":33.7489954,"PRIM_LONG_DEC":-84.3879824},{"FEATURE_ID":331443,"PLACE_NAME":"Columbus - GA","STATE_ALPHA":"GA","FEATURE_NAME":"Columbus","PRIM_LAT_DEC":32.4609764,"PRIM_LONG_DEC":-84.9877094},{"FEATURE_ID":322590,"PLACE_NAME":"Savannah - GA","STATE_ALPHA":"GA","FEATURE_NAME":"Savannah","PRIM_LAT_DEC":32.0835407,"PRIM_LONG_DEC":-81.0998342},{"FEATURE_ID":332975,"PLACE_NAME":"Sandy Springs - GA","STATE_ALPHA":"GA","FEATURE_NAME":"Sandy Springs","PRIM_LAT_DEC":33.9242688,"PRIM_LONG_DEC":-84.3785379},{"FEATURE_ID":2786575,"PLACE_NAME":"South Fulton - GA","STATE_ALPHA":"GA","FEATURE_NAME":"South Fulton","PRIM_LAT_DEC":33.601479,"PRIM_LONG_DEC":-84.550525},{"FEATURE_ID":332929,"PLACE_NAME":"Roswell - GA","STATE_ALPHA":"GA","FEATURE_NAME":"Roswell","PRIM_LAT_DEC":34.0231553,"PRIM_LONG_DEC":-84.3615928},{"FEATURE_ID":2100780,"PLACE_NAME":"Johns Creek - GA","STATE_ALPHA":"GA","FEATURE_NAME":"Johns Creek","PRIM_LAT_DEC":34.0289259,"PRIM_LONG_DEC":-84.198579},{"FEATURE_ID":333366,"PLACE_NAME":"Warner Robins - GA","STATE_ALPHA":"GA","FEATURE_NAME":"Warner Robins","PRIM_LAT_DEC":32.6209775,"PRIM_LONG_DEC":-83.5999048},{"FEATURE_ID":310424,"PLACE_NAME":"Albany - GA","STATE_ALPHA":"GA","FEATURE_NAME":"Albany","PRIM_LAT_DEC":31.5785074,"PRIM_LONG_DEC":-84.155741},{"FEATURE_ID":310497,"PLACE_NAME":"Alpharetta - GA","STATE_ALPHA":"GA","FEATURE_NAME":"Alpharetta","PRIM_LAT_DEC":34.0753762,"PRIM_LONG_DEC":-84.2940899},{"FEATURE_ID":317694,"PLACE_NAME":"Marietta - GA","STATE_ALPHA":"GA","FEATURE_NAME":"Marietta","PRIM_LAT_DEC":33.952602,"PRIM_LONG_DEC":-84.5499327},{"FEATURE_ID":346026,"PLACE_NAME":"Smyrna - GA","STATE_ALPHA":"GA","FEATURE_NAME":"Smyrna","PRIM_LAT_DEC":33.5981814,"PRIM_LONG_DEC":-83.4048862},{"FEATURE_ID":356541,"PLACE_NAME":"Smyrna - GA","STATE_ALPHA":"GA","FEATURE_NAME":"Smyrna","PRIM_LAT_DEC":33.8839926,"PRIM_LONG_DEC":-84.5143761},{"FEATURE_ID":324649,"PLACE_NAME":"Valdosta - GA","STATE_ALPHA":"GA","FEATURE_NAME":"Valdosta","PRIM_LAT_DEC":30.8327022,"PRIM_LONG_DEC":-83.2784851},{"FEATURE_ID":331243,"PLACE_NAME":"Brookhaven - GA","STATE_ALPHA":"GA","FEATURE_NAME":"Brookhaven","PRIM_LAT_DEC":33.8584368,"PRIM_LONG_DEC":-84.340203},{"FEATURE_ID":331244,"PLACE_NAME":"Brookhaven - GA","STATE_ALPHA":"GA","FEATURE_NAME":"Brookhaven","PRIM_LAT_DEC":32.4506989,"PRIM_LONG_DEC":-84.9443752},{"FEATURE_ID":1672057,"PLACE_NAME":"Brookhaven - GA","STATE_ALPHA":"GA","FEATURE_NAME":"Brookhaven","PRIM_LAT_DEC":32.8184734,"PRIM_LONG_DEC":-83.7196273},{"FEATURE_ID":1694768,"PLACE_NAME":"Brookhaven - GA","STATE_ALPHA":"GA","FEATURE_NAME":"Brookhaven","PRIM_LAT_DEC":33.8798253,"PRIM_LONG_DEC":-84.3515924},{"FEATURE_ID":2786722,"PLACE_NAME":"Stonecrest - GA","STATE_ALPHA":"GA","FEATURE_NAME":"Stonecrest","PRIM_LAT_DEC":33.7010022,"PRIM_LONG_DEC":-84.1718853},{"FEATURE_ID":748198,"PLACE_NAME":"Kansas City - MO","STATE_ALPHA":"MO","FEATURE_NAME":"Kansas City","PRIM_LAT_DEC":39.0997266,"PRIM_LONG_DEC":-94.5785667},{"FEATURE_ID":735864,"PLACE_NAME":"Springfield - MO","STATE_ALPHA":"MO","FEATURE_NAME":"Springfield","PRIM_LAT_DEC":37.215326,"PRIM_LONG_DEC":-93.2982436},{"FEATURE_ID":716133,"PLACE_NAME":"Columbia - MO","STATE_ALPHA":"MO","FEATURE_NAME":"Columbia","PRIM_LAT_DEC":38.9517053,"PRIM_LONG_DEC":-92.3340724},{"FEATURE_ID":735664,"PLACE_NAME":"Independence - MO","STATE_ALPHA":"MO","FEATURE_NAME":"Independence","PRIM_LAT_DEC":39.0911161,"PRIM_LONG_DEC":-94.4155068},{"FEATURE_ID":756460,"PLACE_NAME":"O'Fallon - MO","STATE_ALPHA":"MO","FEATURE_NAME":"O'Fallon","PRIM_LAT_DEC":38.8106075,"PRIM_LONG_DEC":-90.6998477},{"FEATURE_ID":2469203,"PLACE_NAME":"O'Fallon - MO","STATE_ALPHA":"MO","FEATURE_NAME":"O'Fallon","PRIM_LAT_DEC":38.6722,"PRIM_LONG_DEC":-90.2295},{"FEATURE_ID":714434,"PLACE_NAME":"Blue Springs - MO","STATE_ALPHA":"MO","FEATURE_NAME":"Blue Springs","PRIM_LAT_DEC":39.0169509,"PRIM_LONG_DEC":-94.2816148},{"FEATURE_ID":756063,"PLACE_NAME":"Florissant - MO","STATE_ALPHA":"MO","FEATURE_NAME":"Florissant","PRIM_LAT_DEC":38.789217,"PRIM_LONG_DEC":-90.322614},{"FEATURE_ID":729911,"PLACE_NAME":"Joplin - MO","STATE_ALPHA":"MO","FEATURE_NAME":"Joplin","PRIM_LAT_DEC":37.0842271,"PRIM_LONG_DEC":-94.513281},{"FEATURE_ID":835483,"PLACE_NAME":"Omaha - NE","STATE_ALPHA":"NE","FEATURE_NAME":"Omaha","PRIM_LAT_DEC":41.2586096,"PRIM_LONG_DEC":-95.937792},{"FEATURE_ID":837279,"PLACE_NAME":"Lincoln - NE","STATE_ALPHA":"NE","FEATURE_NAME":"Lincoln","PRIM_LAT_DEC":40.8000011,"PRIM_LONG_DEC":-96.6669599},{"FEATURE_ID":827304,"PLACE_NAME":"Bellevue - NE","STATE_ALPHA":"NE","FEATURE_NAME":"Bellevue","PRIM_LAT_DEC":41.1366656,"PRIM_LONG_DEC":-95.8908446},{"FEATURE_ID":829622,"PLACE_NAME":"Grand Island - NE","STATE_ALPHA":"NE","FEATURE_NAME":"Grand Island","PRIM_LAT_DEC":40.9250123,"PRIM_LONG_DEC":-98.3420068},{"FEATURE_ID":1500261,"PLACE_NAME":"Virginia Beach - VA","STATE_ALPHA":"VA","FEATURE_NAME":"Virginia Beach","PRIM_LAT_DEC":36.8529263,"PRIM_LONG_DEC":-75.977985},{"FEATURE_ID":1492751,"PLACE_NAME":"Chesapeake - VA","STATE_ALPHA":"VA","FEATURE_NAME":"Chesapeake","PRIM_LAT_DEC":37.3079157,"PRIM_LONG_DEC":-75.9518758},{"FEATURE_ID":1496841,"PLACE_NAME":"Chesapeake - VA","STATE_ALPHA":"VA","FEATURE_NAME":"Chesapeake","PRIM_LAT_DEC":36.8190369,"PRIM_LONG_DEC":-76.2749399},{"FEATURE_ID":1497051,"PLACE_NAME":"Norfolk - VA","STATE_ALPHA":"VA","FEATURE_NAME":"Norfolk","PRIM_LAT_DEC":36.8468146,"PRIM_LONG_DEC":-76.2852183},{"FEATURE_ID":1499957,"PLACE_NAME":"Richmond - VA","STATE_ALPHA":"VA","FEATURE_NAME":"Richmond","PRIM_LAT_DEC":37.5537575,"PRIM_LONG_DEC":-77.4602617},{"FEATURE_ID":1497043,"PLACE_NAME":"Newport News - VA","STATE_ALPHA":"VA","FEATURE_NAME":"Newport News","PRIM_LAT_DEC":36.9787588,"PRIM_LONG_DEC":-76.428003},{"FEATURE_ID":1492456,"PLACE_NAME":"Alexandria - VA","STATE_ALPHA":"VA","FEATURE_NAME":"Alexandria","PRIM_LAT_DEC":38.8048356,"PRIM_LONG_DEC":-77.0469214},{"FEATURE_ID":2092471,"PLACE_NAME":"Alexandria - VA","STATE_ALPHA":"VA","FEATURE_NAME":"Alexandria","PRIM_LAT_DEC":36.7713889,"PRIM_LONG_DEC":-76.1977778},{"FEATURE_ID":1495650,"PLACE_NAME":"Hampton - VA","STATE_ALPHA":"VA","FEATURE_NAME":"Hampton","PRIM_LAT_DEC":37.0298687,"PRIM_LONG_DEC":-76.3452218},{"FEATURE_ID":1499971,"PLACE_NAME":"Roanoke - VA","STATE_ALPHA":"VA","FEATURE_NAME":"Roanoke","PRIM_LAT_DEC":37.2709704,"PRIM_LONG_DEC":-79.9414267},{"FEATURE_ID":1497102,"PLACE_NAME":"Portsmouth - VA","STATE_ALPHA":"VA","FEATURE_NAME":"Portsmouth","PRIM_LAT_DEC":36.8354258,"PRIM_LONG_DEC":-76.2982742},{"FEATURE_ID":1500187,"PLACE_NAME":"Suffolk - VA","STATE_ALPHA":"VA","FEATURE_NAME":"Suffolk","PRIM_LAT_DEC":36.7282054,"PRIM_LONG_DEC":-76.5835621},{"FEATURE_ID":1479007,"PLACE_NAME":"Lynchburg - VA","STATE_ALPHA":"VA","FEATURE_NAME":"Lynchburg","PRIM_LAT_DEC":37.4137536,"PRIM_LONG_DEC":-79.1422464},{"FEATURE_ID":1498489,"PLACE_NAME":"Harrisonburg - VA","STATE_ALPHA":"VA","FEATURE_NAME":"Harrisonburg","PRIM_LAT_DEC":38.4495688,"PRIM_LONG_DEC":-78.8689156},{"FEATURE_ID":655030,"PLACE_NAME":"Minneapolis - MN","STATE_ALPHA":"MN","FEATURE_NAME":"Minneapolis","PRIM_LAT_DEC":44.9799654,"PRIM_LONG_DEC":-93.2638361},{"FEATURE_ID":650180,"PLACE_NAME":"Rochester - MN","STATE_ALPHA":"MN","FEATURE_NAME":"Rochester","PRIM_LAT_DEC":44.0216306,"PRIM_LONG_DEC":-92.4698992},{"FEATURE_ID":661145,"PLACE_NAME":"Duluth - MN","STATE_ALPHA":"MN","FEATURE_NAME":"Duluth","PRIM_LAT_DEC":46.7832731,"PRIM_LONG_DEC":-92.1065787},{"FEATURE_ID":640278,"PLACE_NAME":"Bloomington - MN","STATE_ALPHA":"MN","FEATURE_NAME":"Bloomington","PRIM_LAT_DEC":44.840798,"PRIM_LONG_DEC":-93.2982799},{"FEATURE_ID":640511,"PLACE_NAME":"Brooklyn Park - MN","STATE_ALPHA":"MN","FEATURE_NAME":"Brooklyn Park","PRIM_LAT_DEC":45.0941315,"PRIM_LONG_DEC":-93.3563405},{"FEATURE_ID":649598,"PLACE_NAME":"Plymouth - MN","STATE_ALPHA":"MN","FEATURE_NAME":"Plymouth","PRIM_LAT_DEC":45.0105194,"PRIM_LONG_DEC":-93.4555093},{"FEATURE_ID":655020,"PLACE_NAME":"Woodbury - MN","STATE_ALPHA":"MN","FEATURE_NAME":"Woodbury","PRIM_LAT_DEC":46.6791141,"PRIM_LONG_DEC":-92.9599311},{"FEATURE_ID":659734,"PLACE_NAME":"Woodbury - MN","STATE_ALPHA":"MN","FEATURE_NAME":"Woodbury","PRIM_LAT_DEC":44.9238552,"PRIM_LONG_DEC":-92.9593797},{"FEATURE_ID":647465,"PLACE_NAME":"Maple Grove - MN","STATE_ALPHA":"MN","FEATURE_NAME":"Maple Grove","PRIM_LAT_DEC":45.0724642,"PRIM_LONG_DEC":-93.4557877},{"FEATURE_ID":646445,"PLACE_NAME":"Lakeville - MN","STATE_ALPHA":"MN","FEATURE_NAME":"Lakeville","PRIM_LAT_DEC":44.6496868,"PRIM_LONG_DEC":-93.24272},{"FEATURE_ID":654525,"PLACE_NAME":"Eagan - MN","STATE_ALPHA":"MN","FEATURE_NAME":"Eagan","PRIM_LAT_DEC":44.8041322,"PRIM_LONG_DEC":-93.1668858},{"FEATURE_ID":640245,"PLACE_NAME":"Blaine - MN","STATE_ALPHA":"MN","FEATURE_NAME":"Blaine","PRIM_LAT_DEC":45.1607987,"PRIM_LONG_DEC":-93.2349489},{"FEATURE_ID":643164,"PLACE_NAME":"Eden Prairie - MN","STATE_ALPHA":"MN","FEATURE_NAME":"Eden Prairie","PRIM_LAT_DEC":44.8546856,"PRIM_LONG_DEC":-93.470786},{"FEATURE_ID":641479,"PLACE_NAME":"Coon Rapids - MN","STATE_ALPHA":"MN","FEATURE_NAME":"Coon Rapids","PRIM_LAT_DEC":45.1199652,"PRIM_LONG_DEC":-93.2877277},{"FEATURE_ID":640669,"PLACE_NAME":"Burnsville - MN","STATE_ALPHA":"MN","FEATURE_NAME":"Burnsville","PRIM_LAT_DEC":44.7677424,"PRIM_LONG_DEC":-93.2777226},{"FEATURE_ID":639415,"PLACE_NAME":"Apple Valley - MN","STATE_ALPHA":"MN","FEATURE_NAME":"Apple Valley","PRIM_LAT_DEC":44.7319094,"PRIM_LONG_DEC":-93.21772},{"FEATURE_ID":647949,"PLACE_NAME":"Minnetonka - MN","STATE_ALPHA":"MN","FEATURE_NAME":"Minnetonka","PRIM_LAT_DEC":44.9132965,"PRIM_LONG_DEC":-93.5032877},{"FEATURE_ID":643177,"PLACE_NAME":"Edina - MN","STATE_ALPHA":"MN","FEATURE_NAME":"Edina","PRIM_LAT_DEC":44.8896866,"PRIM_LONG_DEC":-93.3499489},{"FEATURE_ID":1629985,"PLACE_NAME":"New Orleans - LA","STATE_ALPHA":"LA","FEATURE_NAME":"New Orleans","PRIM_LAT_DEC":29.9546482,"PRIM_LONG_DEC":-90.075072},{"FEATURE_ID":1629914,"PLACE_NAME":"Baton Rouge - LA","STATE_ALPHA":"LA","FEATURE_NAME":"Baton Rouge","PRIM_LAT_DEC":30.4507462,"PRIM_LONG_DEC":-91.154551},{"FEATURE_ID":1630015,"PLACE_NAME":"Shreveport - LA","STATE_ALPHA":"LA","FEATURE_NAME":"Shreveport","PRIM_LAT_DEC":32.5251516,"PRIM_LONG_DEC":-93.7501789},{"FEATURE_ID":1629965,"PLACE_NAME":"Lafayette - LA","STATE_ALPHA":"LA","FEATURE_NAME":"Lafayette","PRIM_LAT_DEC":30.2240897,"PRIM_LONG_DEC":-92.0198427},{"FEATURE_ID":1629966,"PLACE_NAME":"Lake Charles - LA","STATE_ALPHA":"LA","FEATURE_NAME":"Lake Charles","PRIM_LAT_DEC":30.2265949,"PRIM_LONG_DEC":-93.2173759},{"FEATURE_ID":553758,"PLACE_NAME":"Bossier City - LA","STATE_ALPHA":"LA","FEATURE_NAME":"Bossier City","PRIM_LAT_DEC":32.5159852,"PRIM_LONG_DEC":-93.7321229},{"FEATURE_ID":558246,"PLACE_NAME":"Kenner - LA","STATE_ALPHA":"LA","FEATURE_NAME":"Kenner","PRIM_LAT_DEC":29.9940924,"PRIM_LONG_DEC":-90.2417434},{"FEATURE_ID":473862,"PLACE_NAME":"Wichita - KS","STATE_ALPHA":"KS","FEATURE_NAME":"Wichita","PRIM_LAT_DEC":37.6922361,"PRIM_LONG_DEC":-97.3375448},{"FEATURE_ID":479210,"PLACE_NAME":"Overland Park - KS","STATE_ALPHA":"KS","FEATURE_NAME":"Overland Park","PRIM_LAT_DEC":38.9822282,"PRIM_LONG_DEC":-94.6707917},{"FEATURE_ID":478635,"PLACE_NAME":"Kansas City - KS","STATE_ALPHA":"KS","FEATURE_NAME":"Kansas City","PRIM_LAT_DEC":39.1141708,"PRIM_LONG_DEC":-94.627457},{"FEATURE_ID":479198,"PLACE_NAME":"Olathe - KS","STATE_ALPHA":"KS","FEATURE_NAME":"Olathe","PRIM_LAT_DEC":38.8813958,"PRIM_LONG_DEC":-94.8191285},{"FEATURE_ID":485477,"PLACE_NAME":"Topeka - KS","STATE_ALPHA":"KS","FEATURE_NAME":"Topeka","PRIM_LAT_DEC":39.0483336,"PRIM_LONG_DEC":-95.6780371},{"FEATURE_ID":479145,"PLACE_NAME":"Lawrence - KS","STATE_ALPHA":"KS","FEATURE_NAME":"Lawrence","PRIM_LAT_DEC":38.9716689,"PRIM_LONG_DEC":-95.2352501},{"FEATURE_ID":478925,"PLACE_NAME":"Shawnee - KS","STATE_ALPHA":"KS","FEATURE_NAME":"Shawnee","PRIM_LAT_DEC":39.0416718,"PRIM_LONG_DEC":-94.7202376},{"FEATURE_ID":479208,"PLACE_NAME":"Lenexa - KS","STATE_ALPHA":"KS","FEATURE_NAME":"Lenexa","PRIM_LAT_DEC":38.9536174,"PRIM_LONG_DEC":-94.7335709},{"FEATURE_ID":476378,"PLACE_NAME":"Manhattan - KS","STATE_ALPHA":"KS","FEATURE_NAME":"Manhattan","PRIM_LAT_DEC":39.1836082,"PRIM_LONG_DEC":-96.5716694},{"FEATURE_ID":878762,"PLACE_NAME":"Newark - NJ","STATE_ALPHA":"NJ","FEATURE_NAME":"Newark","PRIM_LAT_DEC":40.735657,"PRIM_LONG_DEC":-74.1723667},{"FEATURE_ID":877450,"PLACE_NAME":"Jersey City - NJ","STATE_ALPHA":"NJ","FEATURE_NAME":"Jersey City","PRIM_LAT_DEC":40.7281575,"PRIM_LONG_DEC":-74.0776417},{"FEATURE_ID":879164,"PLACE_NAME":"Paterson - NJ","STATE_ALPHA":"NJ","FEATURE_NAME":"Paterson","PRIM_LAT_DEC":40.9167654,"PRIM_LONG_DEC":-74.171811},{"FEATURE_ID":876147,"PLACE_NAME":"Elizabeth - NJ","STATE_ALPHA":"NJ","FEATURE_NAME":"Elizabeth","PRIM_LAT_DEC":40.6639916,"PRIM_LONG_DEC":-74.2107006},{"FEATURE_ID":875500,"PLACE_NAME":"Clifton - NJ","STATE_ALPHA":"NJ","FEATURE_NAME":"Clifton","PRIM_LAT_DEC":40.8584328,"PRIM_LONG_DEC":-74.1637553},{"FEATURE_ID":884540,"PLACE_NAME":"Trenton - NJ","STATE_ALPHA":"NJ","FEATURE_NAME":"Trenton","PRIM_LAT_DEC":40.2170534,"PRIM_LONG_DEC":-74.7429385},{"FEATURE_ID":875105,"PLACE_NAME":"Camden - NJ","STATE_ALPHA":"NJ","FEATURE_NAME":"Camden","PRIM_LAT_DEC":39.9259463,"PRIM_LONG_DEC":-75.1196199},{"FEATURE_ID":879156,"PLACE_NAME":"Passaic - NJ","STATE_ALPHA":"NJ","FEATURE_NAME":"Passaic","PRIM_LAT_DEC":40.8567663,"PRIM_LONG_DEC":-74.1284764},{"FEATURE_ID":881349,"PLACE_NAME":"Union City - NJ","STATE_ALPHA":"NJ","FEATURE_NAME":"Union City","PRIM_LAT_DEC":40.7795455,"PRIM_LONG_DEC":-74.0237512},{"FEATURE_ID":874554,"PLACE_NAME":"Bayonne - NJ","STATE_ALPHA":"NJ","FEATURE_NAME":"Bayonne","PRIM_LAT_DEC":40.6687141,"PRIM_LONG_DEC":-74.1143091},{"FEATURE_ID":876059,"PLACE_NAME":"East Orange - NJ","STATE_ALPHA":"NJ","FEATURE_NAME":"East Orange","PRIM_LAT_DEC":40.767323,"PRIM_LONG_DEC":-74.2048677},{"FEATURE_ID":881466,"PLACE_NAME":"Vineland - NJ","STATE_ALPHA":"NJ","FEATURE_NAME":"Vineland","PRIM_LAT_DEC":39.4862267,"PRIM_LONG_DEC":-75.0257313},{"FEATURE_ID":878725,"PLACE_NAME":"New Brunswick - NJ","STATE_ALPHA":"NJ","FEATURE_NAME":"New Brunswick","PRIM_LAT_DEC":40.4862158,"PRIM_LONG_DEC":-74.4518188},{"FEATURE_ID":877147,"PLACE_NAME":"Hoboken - NJ","STATE_ALPHA":"NJ","FEATURE_NAME":"Hoboken","PRIM_LAT_DEC":40.7439906,"PRIM_LONG_DEC":-74.0323626},{"FEATURE_ID":879245,"PLACE_NAME":"Perth Amboy - NJ","STATE_ALPHA":"NJ","FEATURE_NAME":"Perth Amboy","PRIM_LAT_DEC":40.5067723,"PRIM_LONG_DEC":-74.2654234},{"FEATURE_ID":879338,"PLACE_NAME":"Plainfield - NJ","STATE_ALPHA":"NJ","FEATURE_NAME":"Plainfield","PRIM_LAT_DEC":40.6337136,"PRIM_LONG_DEC":-74.4073737},{"FEATURE_ID":396879,"PLACE_NAME":"Meridian - ID","STATE_ALPHA":"ID","FEATURE_NAME":"Meridian","PRIM_LAT_DEC":43.6121087,"PRIM_LONG_DEC":-116.3915131},{"FEATURE_ID":396943,"PLACE_NAME":"Nampa - ID","STATE_ALPHA":"ID","FEATURE_NAME":"Nampa","PRIM_LAT_DEC":43.5407172,"PRIM_LONG_DEC":-116.5634624},{"FEATURE_ID":396684,"PLACE_NAME":"Idaho Falls - ID","STATE_ALPHA":"ID","FEATURE_NAME":"Idaho Falls","PRIM_LAT_DEC":43.4665809,"PRIM_LONG_DEC":-112.0341374},{"FEATURE_ID":397514,"PLACE_NAME":"Caldwell - ID","STATE_ALPHA":"ID","FEATURE_NAME":"Caldwell","PRIM_LAT_DEC":43.6629384,"PRIM_LONG_DEC":-116.6873596},{"FEATURE_ID":397053,"PLACE_NAME":"Pocatello - ID","STATE_ALPHA":"ID","FEATURE_NAME":"Pocatello","PRIM_LAT_DEC":42.8713032,"PRIM_LONG_DEC":-112.4455344},{"FEATURE_ID":379485,"PLACE_NAME":"Coeur d'Alene - ID","STATE_ALPHA":"ID","FEATURE_NAME":"Coeur d'Alene","PRIM_LAT_DEC":47.6776832,"PRIM_LONG_DEC":-116.7804664},{"FEATURE_ID":398273,"PLACE_NAME":"Twin Falls - ID","STATE_ALPHA":"ID","FEATURE_NAME":"Twin Falls","PRIM_LAT_DEC":42.5629668,"PRIM_LONG_DEC":-114.4608711},{"FEATURE_ID":465961,"PLACE_NAME":"Des Moines - IA","STATE_ALPHA":"IA","FEATURE_NAME":"Des Moines","PRIM_LAT_DEC":41.6005448,"PRIM_LONG_DEC":-93.6091064},{"FEATURE_ID":465941,"PLACE_NAME":"Cedar Rapids - IA","STATE_ALPHA":"IA","FEATURE_NAME":"Cedar Rapids","PRIM_LAT_DEC":42.0083328,"PRIM_LONG_DEC":-91.6440683},{"FEATURE_ID":455799,"PLACE_NAME":"Davenport - IA","STATE_ALPHA":"IA","FEATURE_NAME":"Davenport","PRIM_LAT_DEC":41.5236437,"PRIM_LONG_DEC":-90.5776367},{"FEATURE_ID":461653,"PLACE_NAME":"Sioux City - IA","STATE_ALPHA":"IA","FEATURE_NAME":"Sioux City","PRIM_LAT_DEC":42.4999942,"PRIM_LONG_DEC":-96.4003069},{"FEATURE_ID":457827,"PLACE_NAME":"Iowa City - IA","STATE_ALPHA":"IA","FEATURE_NAME":"Iowa City","PRIM_LAT_DEC":41.6611277,"PRIM_LONG_DEC":-91.5301683},{"FEATURE_ID":462839,"PLACE_NAME":"West Des Moines - IA","STATE_ALPHA":"IA","FEATURE_NAME":"West Des Moines","PRIM_LAT_DEC":41.5772115,"PRIM_LONG_DEC":-93.711332},{"FEATURE_ID":454194,"PLACE_NAME":"Ankeny - IA","STATE_ALPHA":"IA","FEATURE_NAME":"Ankeny","PRIM_LAT_DEC":41.7297102,"PRIM_LONG_DEC":-93.6057734},{"FEATURE_ID":462727,"PLACE_NAME":"Waterloo - IA","STATE_ALPHA":"IA","FEATURE_NAME":"Waterloo","PRIM_LAT_DEC":42.4927641,"PRIM_LONG_DEC":-92.3429631},{"FEATURE_ID":454167,"PLACE_NAME":"Ames - IA","STATE_ALPHA":"IA","FEATURE_NAME":"Ames","PRIM_LAT_DEC":42.0347081,"PRIM_LONG_DEC":-93.6199402},{"FEATURE_ID":455672,"PLACE_NAME":"Council Bluffs - IA","STATE_ALPHA":"IA","FEATURE_NAME":"Council Bluffs","PRIM_LAT_DEC":41.2619444,"PRIM_LONG_DEC":-95.8608333},{"FEATURE_ID":456040,"PLACE_NAME":"Dubuque - IA","STATE_ALPHA":"IA","FEATURE_NAME":"Dubuque","PRIM_LAT_DEC":42.5005583,"PRIM_LONG_DEC":-90.6645718},{"FEATURE_ID":158174,"PLACE_NAME":"Birmingham - AL","STATE_ALPHA":"AL","FEATURE_NAME":"Birmingham","PRIM_LAT_DEC":33.5206608,"PRIM_LONG_DEC":-86.80249},{"FEATURE_ID":151827,"PLACE_NAME":"Huntsville - AL","STATE_ALPHA":"AL","FEATURE_NAME":"Huntsville","PRIM_LAT_DEC":34.7303688,"PRIM_LONG_DEC":-86.5861037},{"FEATURE_ID":165344,"PLACE_NAME":"Montgomery - AL","STATE_ALPHA":"AL","FEATURE_NAME":"Montgomery","PRIM_LAT_DEC":32.3668052,"PRIM_LONG_DEC":-86.2999689},{"FEATURE_ID":155153,"PLACE_NAME":"Mobile - AL","STATE_ALPHA":"AL","FEATURE_NAME":"Mobile","PRIM_LAT_DEC":30.6943566,"PRIM_LONG_DEC":-88.0430541},{"FEATURE_ID":153742,"PLACE_NAME":"Tuscaloosa - AL","STATE_ALPHA":"AL","FEATURE_NAME":"Tuscaloosa","PRIM_LAT_DEC":33.2098407,"PRIM_LONG_DEC":-87.5691735},{"FEATURE_ID":120346,"PLACE_NAME":"Hoover - AL","STATE_ALPHA":"AL","FEATURE_NAME":"Hoover","PRIM_LAT_DEC":33.4053867,"PRIM_LONG_DEC":-86.8113782},{"FEATURE_ID":120347,"PLACE_NAME":"Hoover - AL","STATE_ALPHA":"AL","FEATURE_NAME":"Hoover","PRIM_LAT_DEC":34.8553663,"PRIM_LONG_DEC":-86.7355541},{"FEATURE_ID":117397,"PLACE_NAME":"Dothan - AL","STATE_ALPHA":"AL","FEATURE_NAME":"Dothan","PRIM_LAT_DEC":31.2232313,"PRIM_LONG_DEC":-85.3904889},{"FEATURE_ID":113277,"PLACE_NAME":"Auburn - AL","STATE_ALPHA":"AL","FEATURE_NAME":"Auburn","PRIM_LAT_DEC":32.6098566,"PRIM_LONG_DEC":-85.4807825},{"FEATURE_ID":117185,"PLACE_NAME":"Decatur - AL","STATE_ALPHA":"AL","FEATURE_NAME":"Decatur","PRIM_LAT_DEC":34.6059254,"PRIM_LONG_DEC":-86.9833417},{"FEATURE_ID":122190,"PLACE_NAME":"Madison - AL","STATE_ALPHA":"AL","FEATURE_NAME":"Madison","PRIM_LAT_DEC":33.4442752,"PRIM_LONG_DEC":-86.9391592},{"FEATURE_ID":122191,"PLACE_NAME":"Madison - AL","STATE_ALPHA":"AL","FEATURE_NAME":"Madison","PRIM_LAT_DEC":34.6992579,"PRIM_LONG_DEC":-86.7483318},{"FEATURE_ID":152198,"PLACE_NAME":"Madison - AL","STATE_ALPHA":"AL","FEATURE_NAME":"Madison","PRIM_LAT_DEC":32.4237482,"PRIM_LONG_DEC":-86.2263563},{"FEATURE_ID":1454997,"PLACE_NAME":"Salt Lake City - UT","STATE_ALPHA":"UT","FEATURE_NAME":"Salt Lake City","PRIM_LAT_DEC":40.7607794,"PRIM_LONG_DEC":-111.8910474},{"FEATURE_ID":1437843,"PLACE_NAME":"West Valley City - UT","STATE_ALPHA":"UT","FEATURE_NAME":"West Valley City","PRIM_LAT_DEC":40.6916132,"PRIM_LONG_DEC":-112.0010501},{"FEATURE_ID":1444661,"PLACE_NAME":"Provo - UT","STATE_ALPHA":"UT","FEATURE_NAME":"Provo","PRIM_LAT_DEC":40.2338438,"PRIM_LONG_DEC":-111.6585337},{"FEATURE_ID":1434086,"PLACE_NAME":"West Jordan - UT","STATE_ALPHA":"UT","FEATURE_NAME":"West Jordan","PRIM_LAT_DEC":40.6096698,"PRIM_LONG_DEC":-111.9391031},{"FEATURE_ID":1444110,"PLACE_NAME":"Orem - UT","STATE_ALPHA":"UT","FEATURE_NAME":"Orem","PRIM_LAT_DEC":40.2968979,"PRIM_LONG_DEC":-111.6946475},{"FEATURE_ID":1444049,"PLACE_NAME":"Ogden - UT","STATE_ALPHA":"UT","FEATURE_NAME":"Ogden","PRIM_LAT_DEC":41.223,"PRIM_LONG_DEC":-111.9738304},{"FEATURE_ID":1442459,"PLACE_NAME":"Layton - UT","STATE_ALPHA":"UT","FEATURE_NAME":"Layton","PRIM_LAT_DEC":41.0602216,"PRIM_LONG_DEC":-111.9710529},{"FEATURE_ID":1432728,"PLACE_NAME":"South Jordan - UT","STATE_ALPHA":"UT","FEATURE_NAME":"South Jordan","PRIM_LAT_DEC":40.5621704,"PRIM_LONG_DEC":-111.929658},{"FEATURE_ID":1442553,"PLACE_NAME":"Lehi - UT","STATE_ALPHA":"UT","FEATURE_NAME":"Lehi","PRIM_LAT_DEC":40.3916172,"PRIM_LONG_DEC":-111.8507662},{"FEATURE_ID":1867579,"PLACE_NAME":"Millcreek - UT","STATE_ALPHA":"UT","FEATURE_NAME":"Millcreek","PRIM_LAT_DEC":40.6868914,"PRIM_LONG_DEC":-111.8754907},{"FEATURE_ID":1433206,"PLACE_NAME":"Taylorsville - UT","STATE_ALPHA":"UT","FEATURE_NAME":"Taylorsville","PRIM_LAT_DEC":40.6677248,"PRIM_LONG_DEC":-111.9388258},{"FEATURE_ID":1442849,"PLACE_NAME":"Logan - UT","STATE_ALPHA":"UT","FEATURE_NAME":"Logan","PRIM_LAT_DEC":41.7354862,"PRIM_LONG_DEC":-111.834388},{"FEATURE_ID":1428675,"PLACE_NAME":"Herriman - UT","STATE_ALPHA":"UT","FEATURE_NAME":"Herriman","PRIM_LAT_DEC":40.5141147,"PRIM_LONG_DEC":-112.0329938},{"FEATURE_ID":83350,"PLACE_NAME":"Little Rock - AR","STATE_ALPHA":"AR","FEATURE_NAME":"Little Rock","PRIM_LAT_DEC":34.7464809,"PRIM_LONG_DEC":-92.2895948},{"FEATURE_ID":76952,"PLACE_NAME":"Fort Smith - AR","STATE_ALPHA":"AR","FEATURE_NAME":"Fort Smith","PRIM_LAT_DEC":35.3859242,"PRIM_LONG_DEC":-94.3985475},{"FEATURE_ID":76914,"PLACE_NAME":"Fayetteville - AR","STATE_ALPHA":"AR","FEATURE_NAME":"Fayetteville","PRIM_LAT_DEC":36.0625795,"PRIM_LONG_DEC":-94.1574263},{"FEATURE_ID":78436,"PLACE_NAME":"Springdale - AR","STATE_ALPHA":"AR","FEATURE_NAME":"Springdale","PRIM_LAT_DEC":36.1867442,"PRIM_LONG_DEC":-94.1288142},{"FEATURE_ID":77389,"PLACE_NAME":"Jonesboro - AR","STATE_ALPHA":"AR","FEATURE_NAME":"Jonesboro","PRIM_LAT_DEC":35.8422967,"PRIM_LONG_DEC":-90.7042791},{"FEATURE_ID":54160,"PLACE_NAME":"Rogers - AR","STATE_ALPHA":"AR","FEATURE_NAME":"Rogers","PRIM_LAT_DEC":36.3320197,"PRIM_LONG_DEC":-94.1185366},{"FEATURE_ID":76661,"PLACE_NAME":"Conway - AR","STATE_ALPHA":"AR","FEATURE_NAME":"Conway","PRIM_LAT_DEC":35.0886963,"PRIM_LONG_DEC":-92.4421011},{"FEATURE_ID":77862,"PLACE_NAME":"North Little Rock - AR","STATE_ALPHA":"AR","FEATURE_NAME":"North Little Rock","PRIM_LAT_DEC":34.769536,"PRIM_LONG_DEC":-92.2670941},{"FEATURE_ID":76305,"PLACE_NAME":"Bentonville - AR","STATE_ALPHA":"AR","FEATURE_NAME":"Bentonville","PRIM_LAT_DEC":36.3728538,"PRIM_LONG_DEC":-94.2088172},{"FEATURE_ID":1267670,"PLACE_NAME":"Sioux Falls - SD","STATE_ALPHA":"SD","FEATURE_NAME":"Sioux Falls","PRIM_LAT_DEC":43.5499749,"PRIM_LONG_DEC":-96.700327},{"FEATURE_ID":1265333,"PLACE_NAME":"Rapid City - SD","STATE_ALPHA":"SD","FEATURE_NAME":"Rapid City","PRIM_LAT_DEC":44.0805434,"PRIM_LONG_DEC":-103.2310149},{"FEATURE_ID":1219851,"PLACE_NAME":"Providence - RI","STATE_ALPHA":"RI","FEATURE_NAME":"Providence","PRIM_LAT_DEC":41.8239891,"PRIM_LONG_DEC":-71.4128343},{"FEATURE_ID":1218689,"PLACE_NAME":"Cranston - RI","STATE_ALPHA":"RI","FEATURE_NAME":"Cranston","PRIM_LAT_DEC":41.7798226,"PRIM_LONG_DEC":-71.4372796},{"FEATURE_ID":1220018,"PLACE_NAME":"Warwick - RI","STATE_ALPHA":"RI","FEATURE_NAME":"Warwick","PRIM_LAT_DEC":41.700101,"PRIM_LONG_DEC":-71.4161671},{"FEATURE_ID":1218926,"PLACE_NAME":"Pawtucket - RI","STATE_ALPHA":"RI","FEATURE_NAME":"Pawtucket","PRIM_LAT_DEC":41.878711,"PRIM_LONG_DEC":-71.3825558},{"FEATURE_ID":711543,"PLACE_NAME":"Jackson - MS","STATE_ALPHA":"MS","FEATURE_NAME":"Jackson","PRIM_LAT_DEC":32.2987573,"PRIM_LONG_DEC":-90.1848103},{"FEATURE_ID":670771,"PLACE_NAME":"Gulfport - MS","STATE_ALPHA":"MS","FEATURE_NAME":"Gulfport","PRIM_LAT_DEC":30.3674198,"PRIM_LONG_DEC":-89.0928155},{"FEATURE_ID":690592,"PLACE_NAME":"Southaven - MS","STATE_ALPHA":"MS","FEATURE_NAME":"Southaven","PRIM_LAT_DEC":34.9889818,"PRIM_LONG_DEC":-90.0125913},{"FEATURE_ID":205720,"PLACE_NAME":"Bridgeport - CT","STATE_ALPHA":"CT","FEATURE_NAME":"Bridgeport","PRIM_LAT_DEC":41.1670412,"PRIM_LONG_DEC":-73.2048348},{"FEATURE_ID":209231,"PLACE_NAME":"New Haven - CT","STATE_ALPHA":"CT","FEATURE_NAME":"New Haven","PRIM_LAT_DEC":41.3081527,"PRIM_LONG_DEC":-72.9281578},{"FEATURE_ID":211129,"PLACE_NAME":"Stamford - CT","STATE_ALPHA":"CT","FEATURE_NAME":"Stamford","PRIM_LAT_DEC":41.0534302,"PRIM_LONG_DEC":-73.5387341},{"FEATURE_ID":213160,"PLACE_NAME":"Hartford - CT","STATE_ALPHA":"CT","FEATURE_NAME":"Hartford","PRIM_LAT_DEC":41.7637111,"PRIM_LONG_DEC":-72.6850932},{"FEATURE_ID":211851,"PLACE_NAME":"Waterbury - CT","STATE_ALPHA":"CT","FEATURE_NAME":"Waterbury","PRIM_LAT_DEC":41.5581525,"PRIM_LONG_DEC":-73.0514966},{"FEATURE_ID":209405,"PLACE_NAME":"Norwalk - CT","STATE_ALPHA":"CT","FEATURE_NAME":"Norwalk","PRIM_LAT_DEC":41.1175966,"PRIM_LONG_DEC":-73.4078968},{"FEATURE_ID":206580,"PLACE_NAME":"Danbury - CT","STATE_ALPHA":"CT","FEATURE_NAME":"Danbury","PRIM_LAT_DEC":41.394817,"PRIM_LONG_DEC":-73.4540111},{"FEATURE_ID":209217,"PLACE_NAME":"New Britain - CT","STATE_ALPHA":"CT","FEATURE_NAME":"New Britain","PRIM_LAT_DEC":41.6612104,"PRIM_LONG_DEC":-72.7795419},{"FEATURE_ID":205727,"PLACE_NAME":"Bristol - CT","STATE_ALPHA":"CT","FEATURE_NAME":"Bristol","PRIM_LAT_DEC":41.6717648,"PRIM_LONG_DEC":-72.9492703},{"FEATURE_ID":208834,"PLACE_NAME":"Meriden - CT","STATE_ALPHA":"CT","FEATURE_NAME":"Meriden","PRIM_LAT_DEC":41.5381535,"PRIM_LONG_DEC":-72.8070435},{"FEATURE_ID":211953,"PLACE_NAME":"West Haven - CT","STATE_ALPHA":"CT","FEATURE_NAME":"West Haven","PRIM_LAT_DEC":41.2706527,"PRIM_LONG_DEC":-72.9470471},{"FEATURE_ID":1221516,"PLACE_NAME":"Charleston - SC","STATE_ALPHA":"SC","FEATURE_NAME":"Charleston","PRIM_LAT_DEC":32.7765656,"PRIM_LONG_DEC":-79.9309216},{"FEATURE_ID":1245051,"PLACE_NAME":"Columbia - SC","STATE_ALPHA":"SC","FEATURE_NAME":"Columbia","PRIM_LAT_DEC":34.0007104,"PRIM_LONG_DEC":-81.0348144},{"FEATURE_ID":1225072,"PLACE_NAME":"North Charleston - SC","STATE_ALPHA":"SC","FEATURE_NAME":"North Charleston","PRIM_LAT_DEC":32.8546197,"PRIM_LONG_DEC":-79.9748103},{"FEATURE_ID":1231736,"PLACE_NAME":"Rock Hill - SC","STATE_ALPHA":"SC","FEATURE_NAME":"Rock Hill","PRIM_LAT_DEC":34.2518165,"PRIM_LONG_DEC":-81.2550938},{"FEATURE_ID":1250417,"PLACE_NAME":"Rock Hill - SC","STATE_ALPHA":"SC","FEATURE_NAME":"Rock Hill","PRIM_LAT_DEC":34.9248667,"PRIM_LONG_DEC":-81.0250784},{"FEATURE_ID":1245842,"PLACE_NAME":"Greenville - SC","STATE_ALPHA":"SC","FEATURE_NAME":"Greenville","PRIM_LAT_DEC":34.8526176,"PRIM_LONG_DEC":-82.3940105},{"FEATURE_ID":1028945,"PLACE_NAME":"Fargo - ND","STATE_ALPHA":"ND","FEATURE_NAME":"Fargo","PRIM_LAT_DEC":46.8771863,"PRIM_LONG_DEC":-96.7898034},{"FEATURE_ID":1035849,"PLACE_NAME":"Bismarck - ND","STATE_ALPHA":"ND","FEATURE_NAME":"Bismarck","PRIM_LAT_DEC":46.8083268,"PRIM_LONG_DEC":-100.7837392},{"FEATURE_ID":1029197,"PLACE_NAME":"Grand Forks - ND","STATE_ALPHA":"ND","FEATURE_NAME":"Grand Forks","PRIM_LAT_DEC":47.9252568,"PRIM_LONG_DEC":-97.0328547},{"FEATURE_ID":868243,"PLACE_NAME":"Manchester - NH","STATE_ALPHA":"NH","FEATURE_NAME":"Manchester","PRIM_LAT_DEC":42.9956397,"PRIM_LONG_DEC":-71.4547891},{"FEATURE_ID":868677,"PLACE_NAME":"Nashua - NH","STATE_ALPHA":"NH","FEATURE_NAME":"Nashua","PRIM_LAT_DEC":42.7653662,"PRIM_LONG_DEC":-71.467566},{"FEATURE_ID":802034,"PLACE_NAME":"Billings - MT","STATE_ALPHA":"MT","FEATURE_NAME":"Billings","PRIM_LAT_DEC":45.7832856,"PRIM_LONG_DEC":-108.5006904},{"FEATURE_ID":787504,"PLACE_NAME":"Missoula - MT","STATE_ALPHA":"MT","FEATURE_NAME":"Missoula","PRIM_LAT_DEC":46.872146,"PRIM_LONG_DEC":-113.9939982},{"FEATURE_ID":802113,"PLACE_NAME":"Great Falls - MT","STATE_ALPHA":"MT","FEATURE_NAME":"Great Falls","PRIM_LAT_DEC":47.5002354,"PRIM_LONG_DEC":-111.3008083},{"FEATURE_ID":214862,"PLACE_NAME":"Wilmington - DE","STATE_ALPHA":"DE","FEATURE_NAME":"Wilmington","PRIM_LAT_DEC":39.7459467,"PRIM_LONG_DEC":-75.5465889},{"FEATURE_ID":573692,"PLACE_NAME":"Portland - ME","STATE_ALPHA":"ME","FEATURE_NAME":"Portland","PRIM_LAT_DEC":43.661471,"PRIM_LONG_DEC":-70.2553259},{"FEATURE_ID":1609077,"PLACE_NAME":"Cheyenne - WY","STATE_ALPHA":"WY","FEATURE_NAME":"Cheyenne","PRIM_LAT_DEC":41.1399814,"PRIM_LONG_DEC":-104.8202462},{"FEATURE_ID":1586424,"PLACE_NAME":"Casper - WY","STATE_ALPHA":"WY","FEATURE_NAME":"Casper","PRIM_LAT_DEC":42.866632,"PRIM_LONG_DEC":-106.313081},{"FEATURE_ID":1558347,"PLACE_NAME":"Charleston - WV","STATE_ALPHA":"WV","FEATURE_NAME":"Charleston","PRIM_LAT_DEC":38.3498195,"PRIM_LONG_DEC":-81.6326235}]